title,abbr,key,slug,category,parent,parent_key,description,url,jurisdiction,jurisdiction_code,source,source_url,source_description,address,contact,email,tags,created_at,updated_at
Advocacia-Geral da União,ADVGERAL,br/advocacia-geral-uniao,advocacia-geral-uniao,,Presidência da República,br/presidencia-republica,,agu.gov.br,Brazil,BR,SIORG XML Extraction,http://repositorio.dados.gov.br/governo-politica/administracao-publica/estrutura-organizacional/,,"SAS - Quadra 03, Lote 05/06, 14º andar - Ed. MULTIBRASIL Corporate, Brasília, DF, Brasil",,,,1993-02-10,2013-04-22T09:04:54
Agência Brasileira de Inteligência,ABIN,br/agencia-brasileira-inteligencia,agencia-brasileira-inteligencia,,Gabinete de Segurança Institucional da Presidência da República,br/gabinete-seguranca-institucional-presidencia-republica,,http://www.abin.gov.br,Brazil,BR,SIORG XML Extraction,http://repositorio.dados.gov.br/governo-politica/administracao-publica/estrutura-organizacional/,,"SPO Área 05 - Quadra 01 - Bloco A , Brasília, DF, Brasil",,,,2008-03-24,2013-04-22T09:04:54
Agência Espacial Brasileira,AEB,br/agencia-espacial-brasileira,agencia-espacial-brasileira,,"Ministério da Ciência, Tecnologia e Inovação",br/ministerio-ciencia-tecnologia-inovacao,,http://www.aeb.gov.br/,Brazil,BR,SIORG XML Extraction,http://repositorio.dados.gov.br/governo-politica/administracao-publica/estrutura-organizacional/,,"Setor Policial Sul, Área 5, Qd. 3, Bl. A, 2º Andar, Brasília, DF, Brasil",,,,2003-06-04,2013-04-22T09:04:54
Agência Nacional de Águas,ANA,br/agencia-nacional-aguas,agencia-nacional-aguas,,Ministério do Meio Ambiente,br/ministerio-meio-ambiente,,http://www.ana.gov.br,Brazil,BR,SIORG XML Extraction,http://repositorio.dados.gov.br/governo-politica/administracao-publica/estrutura-organizacional/,,"Setor Policial Sul, Área 5, Quadra 3, Bloco 'B', ""L"", ""M"", Brasília, DF, Brasil",,,,2007-04-26,2013-04-22T09:04:54
Agência Nacional de Aviação Civil,ANAC,br/agencia-nacional-aviacao-civil,agencia-nacional-aviacao-civil,,Secretaria de Aviação Civil da Presidência da República,br/secretaria-aviacao-civil-presidencia-republica,,www.anac.gov.br,Brazil,BR,SIORG XML Extraction,http://repositorio.dados.gov.br/governo-politica/administracao-publica/estrutura-organizacional/,,"Aeroporto Internacional de Brasília, Setor de Concessionárias, Lote 5, Brasília, DF, Brasil",,,,2005-09-27,2013-04-22T09:04:54
Agência Nacional do Cinema,ANCINE,br/agencia-nacional-cinema,agencia-nacional-cinema,,Ministério da Cultura,br/ministerio-cultura,,http://www.ancine.gov.br/ancine/,Brazil,BR,SIORG XML Extraction,http://repositorio.dados.gov.br/governo-politica/administracao-publica/estrutura-organizacional/,,"Avenida Graça Aranha, nº 35 - 10º andar, Rio de Janeiro, RJ, Brasil",,,,2001-09-06,2013-04-22T09:04:54
Agência Nacional de Energia Elétrica,ANEEL,br/agencia-nacional-energia-eletrica,agencia-nacional-energia-eletrica,,Ministério de Minas e Energia,br/ministerio-minas-energia,,http://www.aneel.gov.br/,Brazil,BR,SIORG XML Extraction,http://repositorio.dados.gov.br/governo-politica/administracao-publica/estrutura-organizacional/,,"SGAN, Quadra 603, Módulo I e J , Brasília, DF, Brasil",,,,2003-03-21,2013-04-22T09:04:54
"Agência Nacional do Petróleo, Gás Natural e Biocombustíveis",ANP,br/agencia-nacional-petroleo-gas-natural-biocombustiveis,agencia-nacional-petroleo-gas-natural-biocombustiveis,,Ministério de Minas e Energia,br/ministerio-minas-energia,,http://www.anp.gov.br/,Brazil,BR,SIORG XML Extraction,http://repositorio.dados.gov.br/governo-politica/administracao-publica/estrutura-organizacional/,,"Av.Rio Branco , 65  21º Andar, Rio de Janeiro, RJ, Brasil",,,,1997-08-06,2013-04-22T09:04:54
Agência Nacional de Saúde Suplementar,ANS,br/agencia-nacional-saude-suplementar,agencia-nacional-saude-suplementar,,Ministério da Saúde,br/ministerio-saude,,http://www.ans.gov.br,Brazil,BR,SIORG XML Extraction,http://repositorio.dados.gov.br/governo-politica/administracao-publica/estrutura-organizacional/,,"Av. Augusto Severo, nº 84,  8º andar , Rio de Janeiro, RJ, Brasil",,,,2000-01-05,2013-04-22T09:04:54
Agência Nacional de Telecomunicações,ANATEL,br/agencia-nacional-telecomunicacoes,agencia-nacional-telecomunicacoes,,Ministério das Comunicações,br/ministerio-comunicacoes,,http://www.anatel.gov.br/,Brazil,BR,SIORG XML Extraction,http://repositorio.dados.gov.br/governo-politica/administracao-publica/estrutura-organizacional/,,"SAUS, Quadra 6, Bloco H , Brasília, DF, Brasil",,,,1997-07-16,2013-04-22T09:04:54
Agência Nacional de Transportes Aquaviários,ANTAQ,br/agencia-nacional-transportes-aquaviarios,agencia-nacional-transportes-aquaviarios,,Secretaria de Portos da Presidência da República,br/secretaria-portos-presidencia-republica,,http://www.antaq.gov.br/,Brazil,BR,SIORG XML Extraction,http://repositorio.dados.gov.br/governo-politica/administracao-publica/estrutura-organizacional/,,"SAN. Q 3, Bloco N/O, Ed. Núcleo dos transportes 2º andar, Brasília, DF, Brasil",,,,2003-06-05,2013-04-22T09:04:54
Agência Nacional de Transportes Terrestres,ANTT,br/agencia-nacional-transportes-terrestres,agencia-nacional-transportes-terrestres,,Ministério dos Transportes,br/ministerio-transportes,,http://www.antt.gov.br/,Brazil,BR,SIORG XML Extraction,http://repositorio.dados.gov.br/governo-politica/administracao-publica/estrutura-organizacional/,,"Setor Bancário Norte, Quadra 2, Bloco C, Brasília, DF, Brasil",,,,2003-06-05,2013-04-22T09:04:54
Agência Nacional de Vigilância Sanitária,ANVISA,br/agencia-nacional-vigilancia-sanitaria,agencia-nacional-vigilancia-sanitaria,,Ministério da Saúde,br/ministerio-saude,,http://www.anvisa.gov.br,Brazil,BR,SIORG XML Extraction,http://repositorio.dados.gov.br/governo-politica/administracao-publica/estrutura-organizacional/,,"Setor de Indústria e Abastecimento (SIA) - Trecho 5, Área Especial 57, Brasília, DF, Brasil",,,,2003-06-09,2013-04-22T09:04:54
Assessoria Especial do Presidente da República,AEPR,br/assessoria-especial-presidente-republica,assessoria-especial-presidente-republica,,Presidência da República,br/presidencia-republica,,,Brazil,BR,SIORG XML Extraction,http://repositorio.dados.gov.br/governo-politica/administracao-publica/estrutura-organizacional/,,"Palácio do Planalto, 3º andar, Brasília, DF, Brasil",,,,2003-02-17,2013-04-22T09:04:54
Autoridade Pública Olímpica,APO,br/autoridade-publica-olimpica,autoridade-publica-olimpica,,Ministério do Esporte,br/ministerio-esporte,,,Brazil,BR,SIORG XML Extraction,http://repositorio.dados.gov.br/governo-politica/administracao-publica/estrutura-organizacional/,,"Rio de Janeiro, RJ, Brasil",,,,2011-03-21,2013-04-22T09:04:54
Banco da Amazônia S.A.,BASA,br/banco-amazonia-sa,banco-amazonia-sa,,Ministério da Fazenda,br/ministerio-fazenda,,http://www.bancoamazonia.com.br/contato_presidencia_diretorias.htm,Brazil,BR,SIORG XML Extraction,http://repositorio.dados.gov.br/governo-politica/administracao-publica/estrutura-organizacional/,,"AV. PRESIDENTE VARGAS,800, ESQUINA COM RUA CARL, Belém, PA, Brasil",,,,2003-03-24,2013-04-22T09:04:54
Banco do Brasil S.A.,BB,br/banco-brasil-sa,banco-brasil-sa,,Ministério da Fazenda,br/ministerio-fazenda,,https://www13.bb.com.br/appbb/portal/fs/rsp/index.jsp,Brazil,BR,SIORG XML Extraction,http://repositorio.dados.gov.br/governo-politica/administracao-publica/estrutura-organizacional/,,"SETOR BANCÁRIO SUL, Q-4 BLOCO C LOTE 32, Brasília, DF, Brasil",,,,2003-03-24,2013-04-22T09:04:54
Banco Central do Brasil,BACEN,br/banco-central-brasil,banco-central-brasil,,Ministério da Fazenda,br/ministerio-fazenda,,http://www4.bcb.gov.br/?FALECONOSCO,Brazil,BR,SIORG XML Extraction,http://repositorio.dados.gov.br/governo-politica/administracao-publica/estrutura-organizacional/,,"SBS, Quadra 3, Bloco B, Edifício Sede do BACEN, Brasília, DF, Brasil",,,,1964-12-31,2013-04-22T09:04:54
Banco Nacional de Desenvolvimento Econômico e Social,BNDES,br/banco-nacional-desenvolvimento-economico-social,banco-nacional-desenvolvimento-economico-social,,"Ministério do Desenvolvimento, Indústria e Comércio Exterior",br/ministerio-desenvolvimento-industria-comercio-exterior,,http://www.bndes.gov.br/,Brazil,BR,SIORG XML Extraction,http://repositorio.dados.gov.br/governo-politica/administracao-publica/estrutura-organizacional/,,"AVENIDA REPÚBLICA DO CHILE,100, Rio de Janeiro, RJ, Brasil",,,,2003-03-21,2013-04-22T09:04:54
Banco do Nordeste do Brasil S.A.,BNB,br/banco-nordeste-brasil-sa,banco-nordeste-brasil-sa,,Ministério da Fazenda,br/ministerio-fazenda,,http://www.banconordeste.gov.br/,Brazil,BR,SIORG XML Extraction,http://repositorio.dados.gov.br/governo-politica/administracao-publica/estrutura-organizacional/,,"PRAÇA MURILO BORGES 01 / 5 ANDAR, Fortaleza, CE, Brasil",,,,2003-03-24,2013-04-22T09:04:54
Caixa de Construções de Casas para o Pessoal da Marinha,CCCPCM,br/caixa-construcoes-casas-pessoal-marinha,caixa-construcoes-casas-pessoal-marinha,,Comando da Marinha,br/comando-marinha,,http://,Brazil,BR,SIORG XML Extraction,http://repositorio.dados.gov.br/governo-politica/administracao-publica/estrutura-organizacional/,,"Av. Rio Branco, 39, 13º Andar Centro, Rio de Janeiro, RJ, Brasil",,,,1996-09-26,2013-04-22T09:04:54
Caixa Econômica Federal,CEF,br/caixa-economica-federal,caixa-economica-federal,,Ministério da Fazenda,br/ministerio-fazenda,,https://www1.caixa.gov.br/conversecom/index.asp,Brazil,BR,SIORG XML Extraction,http://repositorio.dados.gov.br/governo-politica/administracao-publica/estrutura-organizacional/,,"SBS Qd.4, Lote 34, Brasília, DF, Brasil",,,,2003-03-24,2013-04-22T09:04:54
Caixa de Financiamento Imobiliário da Aeronáutica,CFIAE,br/caixa-financiamento-imobiliario-aeronautica,caixa-financiamento-imobiliario-aeronautica,,Comando da Aeronáutica,br/comando-aeronautica,,http://www.cfiae.aer.mil.br,Brazil,BR,SIORG XML Extraction,http://repositorio.dados.gov.br/governo-politica/administracao-publica/estrutura-organizacional/,,"Av Marechal Câmara, 233, 11º andar - Castelo, Rio de Janeiro, RJ, Brasil",,,,2009-04-30,2013-04-22T09:04:54
Casa Civil da Presidência da República,CC-PR,br/casa-civil-presidencia-republica,casa-civil-presidencia-republica,,Presidência da República,br/presidencia-republica,,http://www.planalto.gov.br,Brazil,BR,SIORG XML Extraction,http://repositorio.dados.gov.br/governo-politica/administracao-publica/estrutura-organizacional/,,"Palácio do Planalto, 4 Andar, sala 58 , Pça dos Três Poderes, Brasília, DF, Brasil",,,,2004-07-07,2013-04-22T09:04:54
Casa da Moeda do Brasil,CMB,br/casa-moeda-brasil,casa-moeda-brasil,,Ministério da Fazenda,br/ministerio-fazenda,,http://www.casadamoeda.com.br/,Brazil,BR,SIORG XML Extraction,http://repositorio.dados.gov.br/governo-politica/administracao-publica/estrutura-organizacional/,,"RUA RENÉ BITTENCOURT N 371, DISTR. INDL. ST CRUZ, Rio de Janeiro, RJ, Brasil",,,,2003-03-24,2013-04-22T09:04:54
Centrais de Abastecimento de Minas Gerais S.A.,CEASA-MG,br/centrais-abastecimento-minas-gerais-sa,centrais-abastecimento-minas-gerais-sa,,"Ministério da Agricultura, Pecuária e Abastecimento",br/ministerio-agricultura-pecuaria-abastecimento,,http://www.abracen.org.br/Lnk06.htm,Brazil,BR,SIORG XML Extraction,http://repositorio.dados.gov.br/governo-politica/administracao-publica/estrutura-organizacional/,,"BR-040, Município de Contagem-MG, Contagem, MG, Brasil",,,,2003-03-21,2013-04-22T09:04:54
Centrais Elétricas Brasileiras S/A,ELETROBRÁS,br/centrais-eletricas-brasileiras-sa,centrais-eletricas-brasileiras-sa,,Ministério de Minas e Energia,br/ministerio-minas-energia,,http://www.eletrobras.com.br,Brazil,BR,SIORG XML Extraction,http://repositorio.dados.gov.br/governo-politica/administracao-publica/estrutura-organizacional/,,"Av. Presidente Vargas, 409/13º andar Centro, Rio de Janeiro, RJ, Brasil",,,,2003-03-21,2013-04-22T09:04:54
Centro Federal de Educação Tecnológica ?Celso Suckow da Fonseca?,CEFET-RJ,br/centro-federal-educacao-tecnologica-?celso-suckow-fonseca,centro-federal-educacao-tecnologica-?celso-suckow-fonseca,,Ministério da Educação,br/ministerio-educacao,,http://www.cefet-rj.br,Brazil,BR,SIORG XML Extraction,http://repositorio.dados.gov.br/governo-politica/administracao-publica/estrutura-organizacional/,,"Avenida Maracanã, 229, Município do Rio de Janeiro - RJ, Rio de Janeiro, RJ, Brasil",,,,2005-11-01,2013-04-22T09:04:54
Centro Federal de Educação Tecnológica de Minas Gerais,CEFET-MG,br/centro-federal-educacao-tecnologica-minas-gerais,centro-federal-educacao-tecnologica-minas-gerais,,Ministério da Educação,br/ministerio-educacao,,http://www.cefetmg.br,Brazil,BR,SIORG XML Extraction,http://repositorio.dados.gov.br/governo-politica/administracao-publica/estrutura-organizacional/,,"Avenida Amazonas, 5253, Belo Horizonte, MG, Brasil",,,,1982-07-19,2013-04-22T09:04:54
Centro Nacional de Tecnologia Eletrônica Avançada S. A,CEITEC/S.A.,br/centro-nacional-tecnologia-eletronica-avancada-s-a,centro-nacional-tecnologia-eletronica-avancada-s-a,,"Ministério da Ciência, Tecnologia e Inovação",br/ministerio-ciencia-tecnologia-inovacao,,http://www.ceitec-sa.com/,Brazil,BR,SIORG XML Extraction,http://repositorio.dados.gov.br/governo-politica/administracao-publica/estrutura-organizacional/,,"Estrada João de Oliveira Remião, 777, Porto Alegre, RS, Brasil",,,,2008-11-07,2013-04-22T09:04:54
Colégio Pedro II,CP II,br/colegio-pedro-ii,colegio-pedro-ii,,Ministério da Educação,br/ministerio-educacao,,http://www.cp2.g12.br/,Brazil,BR,SIORG XML Extraction,http://repositorio.dados.gov.br/governo-politica/administracao-publica/estrutura-organizacional/,,"Campo de São Cristovão, 177, 2 Andar, Rio de Janeiro, RJ, Brasil",,,,1987-09-28,2013-04-22T09:04:54
Comando da Aeronáutica,COMAER,br/comando-aeronautica,comando-aeronautica,,Ministério da Defesa,br/ministerio-defesa,,http://www.fab.mil.br/,Brazil,BR,SIORG XML Extraction,http://repositorio.dados.gov.br/governo-politica/administracao-publica/estrutura-organizacional/,,"Esplanada dos Ministérios, Bloco M, 8 Andar, Brasília, DF, Brasil",,,,2009-04-30,2013-04-22T09:04:54
Comando do Exército,CEX,br/comando-exercito,comando-exercito,,Ministério da Defesa,br/ministerio-defesa,,http://www.exercito.gov.br,Brazil,BR,SIORG XML Extraction,http://repositorio.dados.gov.br/governo-politica/administracao-publica/estrutura-organizacional/,,"Quartel General do Exército, Bloco A, 4º andar SMU, Brasília, DF, Brasil",,,,2006-04-12,2013-04-22T09:04:54
Comando da Marinha,CMAR,br/comando-marinha,comando-marinha,,Ministério da Defesa,br/ministerio-defesa,,http://www.mar.mil.br/,Brazil,BR,SIORG XML Extraction,http://repositorio.dados.gov.br/governo-politica/administracao-publica/estrutura-organizacional/,,"Esplanada dos Ministérios, Bloco N, 2º Andar, Brasília, DF, Brasil",,,,2005-04-13,2013-04-22T09:04:54
Comissão Nacional de Energia Nuclear,CNEN,br/comissao-nacional-energia-nuclear,comissao-nacional-energia-nuclear,,"Ministério da Ciência, Tecnologia e Inovação",br/ministerio-ciencia-tecnologia-inovacao,,http://www.cnen.gov.br,Brazil,BR,SIORG XML Extraction,http://repositorio.dados.gov.br/governo-politica/administracao-publica/estrutura-organizacional/,,"Rua General Severiano, 90, Sala 300-A, Rio de Janeiro, RJ, Brasil",,,,2006-01-10,2013-04-22T09:04:54
Comissão de Valores Mobiliários,CVM,br/comissao-valores-mobiliarios,comissao-valores-mobiliarios,,Ministério da Fazenda,br/ministerio-fazenda,,http://www.cvm.gov.br,Brazil,BR,SIORG XML Extraction,http://repositorio.dados.gov.br/governo-politica/administracao-publica/estrutura-organizacional/,,"Rua Sete de Setembro, 111, Centro, Rio de Janeiro, RJ, Brasil",,,,2008-02-27,2013-04-22T09:04:54
Companhia de Armazéns e Silos do Estado de Minas Gerais,CASEMG,br/companhia-armazens-silos-estado-minas-gerais,companhia-armazens-silos-estado-minas-gerais,,"Ministério da Agricultura, Pecuária e Abastecimento",br/ministerio-agricultura-pecuaria-abastecimento,,,Brazil,BR,SIORG XML Extraction,http://repositorio.dados.gov.br/governo-politica/administracao-publica/estrutura-organizacional/,,"Rua Timbiras, nº 1754, 14º e 15º andares, Belo Horizonte, MG, Brasil",,,,2003-03-21,2013-04-22T09:04:54
Companhia Brasileira de Trens Urbanos ,CBTU,br/companhia-brasileira-trens-urbanos,companhia-brasileira-trens-urbanos,,Ministério das Cidades,br/ministerio-cidades,,www.cbtu.gov.br,Brazil,BR,SIORG XML Extraction,http://repositorio.dados.gov.br/governo-politica/administracao-publica/estrutura-organizacional/,,"Praça Procópio Ferreira, nº 86, Rio de Janeiro, RJ, Brasil",,,,2003-04-03,2013-04-22T09:04:54
Companhia de Desenvolvimento dos Vales do São Francisco e do Parnaíba,CODEVASF,br/companhia-desenvolvimento-vales-sao-francisco-parnaiba,companhia-desenvolvimento-vales-sao-francisco-parnaiba,,Ministério da Integração Nacional,br/ministerio-integracao-nacional,,http://www.codevasf.gov.br/,Brazil,BR,SIORG XML Extraction,http://repositorio.dados.gov.br/governo-politica/administracao-publica/estrutura-organizacional/,,"SGAN QUADRA 601, CONJUNTO I, Brasília, DF, Brasil",,,,1974-07-16,2013-04-22T09:04:54
Companhia Docas do Ceará,CDC,br/companhia-docas-ceara,companhia-docas-ceara,,Secretaria de Portos da Presidência da República,br/secretaria-portos-presidencia-republica,,http://www.cdc.ce.gov.br/,Brazil,BR,SIORG XML Extraction,http://repositorio.dados.gov.br/governo-politica/administracao-publica/estrutura-organizacional/,,"Praça Amigos da Marinha,S/N, Mucuripe, Fortaleza, CE, Brasil",,,,2003-06-05,2013-04-22T09:04:54
Companhia Docas do Espírito Santo,CODESA,br/companhia-docas-espirito-santo,companhia-docas-espirito-santo,,Secretaria de Portos da Presidência da República,br/secretaria-portos-presidencia-republica,,http://www.portodevitoria.com.br/codesa.htm,Brazil,BR,SIORG XML Extraction,http://repositorio.dados.gov.br/governo-politica/administracao-publica/estrutura-organizacional/,,"Avenida Getulio Vargas nº 556, Centro, Vitória, ES, Brasil",,,,2003-06-05,2013-04-22T09:04:54
Companhia das Docas do Estado da Bahia,CODEBA,br/companhia-docas-estado-bahia,companhia-docas-estado-bahia,,Secretaria de Portos da Presidência da República,br/secretaria-portos-presidencia-republica,,http://www.codeba.com.br/favtop.html,Brazil,BR,SIORG XML Extraction,http://repositorio.dados.gov.br/governo-politica/administracao-publica/estrutura-organizacional/,,"Avenida Franca  N 1551, Estação Marítima VIS, Salvador, BA, Brasil",,,,2003-06-05,2013-04-22T09:04:54
Companhia Docas do Estado de São Paulo,CODESP,br/companhia-docas-estado-sao-paulo,companhia-docas-estado-sao-paulo,,Secretaria de Portos da Presidência da República,br/secretaria-portos-presidencia-republica,,http://www.portodesantos.com.br/,Brazil,BR,SIORG XML Extraction,http://repositorio.dados.gov.br/governo-politica/administracao-publica/estrutura-organizacional/,,"Avenida Rodrigues Alves S/Nº, Santos, SP, Brasil",,,,2003-06-05,2013-04-22T09:04:54
Companhia Docas do Maranhão,CODOMAR,br/companhia-docas-maranhao,companhia-docas-maranhao,,Ministério dos Transportes,br/ministerio-transportes,,http://www.ahimoc.com.br/,Brazil,BR,SIORG XML Extraction,http://repositorio.dados.gov.br/governo-politica/administracao-publica/estrutura-organizacional/,,"Porto do Itaqui S/N, Itaqui , São Luís, MA, Brasil",,,,2003-06-05,2013-04-22T09:04:54
Companhia Docas do Pará,CDP,br/companhia-docas-para,companhia-docas-para,,Secretaria de Portos da Presidência da República,br/secretaria-portos-presidencia-republica,,http://www.cdp.com.br/index.htm,Brazil,BR,SIORG XML Extraction,http://repositorio.dados.gov.br/governo-politica/administracao-publica/estrutura-organizacional/,,"Avenida Presidente Vargas  N 41, 2 ANDAR, Belém, PA, Brasil",,,,2003-06-05,2013-04-22T09:04:54
Companhia Docas do Rio Grande do Norte,CODERN,br/companhia-docas-rio-grande-norte,companhia-docas-rio-grande-norte,,Secretaria de Portos da Presidência da República,br/secretaria-portos-presidencia-republica,,http://www.codern.com.br/,Brazil,BR,SIORG XML Extraction,http://repositorio.dados.gov.br/governo-politica/administracao-publica/estrutura-organizacional/,,"Av. Eng. Hildebrando de Góis, 220, Prédio , Natal, RN, Brasil",,,,2003-06-05,2013-04-22T09:04:54
Companhia Docas do Rio de Janeiro,CDRJ,br/companhia-docas-rio-janeiro,companhia-docas-rio-janeiro,,Secretaria de Portos da Presidência da República,br/secretaria-portos-presidencia-republica,,http://www.portosrio.gov.br/Cdrj/index.htm,Brazil,BR,SIORG XML Extraction,http://repositorio.dados.gov.br/governo-politica/administracao-publica/estrutura-organizacional/,,"Rua Acre , nº 21, Rio de Janeiro, RJ, Brasil",,,,2003-06-05,2013-04-22T09:04:54
Companhia Energética do Piauí,CEPISA,br/companhia-energetica-piaui,companhia-energetica-piaui,,Centrais Elétricas Brasileiras S/A,br/centrais-eletricas-brasileiras-sa,,http://,Brazil,BR,SIORG XML Extraction,http://repositorio.dados.gov.br/governo-politica/administracao-publica/estrutura-organizacional/,,"Avenida Fernandes Lima, 3343, Brasil",,,,1987-07-30,2013-04-22T09:04:54
Companhia de Entrepostos e Armazéns Gerais de São Paulo ,CEAGESP,br/companhia-entrepostos-armazens-gerais-sao-paulo,companhia-entrepostos-armazens-gerais-sao-paulo,,"Ministério da Agricultura, Pecuária e Abastecimento",br/ministerio-agricultura-pecuaria-abastecimento,,http://www.ceagesp.com.br/,Brazil,BR,SIORG XML Extraction,http://repositorio.dados.gov.br/governo-politica/administracao-publica/estrutura-organizacional/,,"Avenida Dr. Gastão Vidigal , 194, Vila  Leopoldina , São Paulo, SP, Brasil",,,,2003-03-21,2013-04-22T09:04:54
Companhia Nacional de Abastecimento,CONAB,br/companhia-nacional-abastecimento,companhia-nacional-abastecimento,,"Ministério da Agricultura, Pecuária e Abastecimento",br/ministerio-agricultura-pecuaria-abastecimento,,http://www.conab.gov.br/,Brazil,BR,SIORG XML Extraction,http://repositorio.dados.gov.br/governo-politica/administracao-publica/estrutura-organizacional/,,"SGAS Quadra 901, Conj A, Lote 69 , Ed. CONAB, Brasília, DF, Brasil",,,,2003-03-21,2013-04-22T09:04:54
Companhia de Pesquisa de Recursos Minerais,CPRM,br/companhia-pesquisa-recursos-minerais,companhia-pesquisa-recursos-minerais,,Ministério de Minas e Energia,br/ministerio-minas-energia,,http://www.cprm.gov.br/,Brazil,BR,SIORG XML Extraction,http://repositorio.dados.gov.br/governo-politica/administracao-publica/estrutura-organizacional/,,"SGAN , Quadra 603 , Modulo J , 1º Andar, Brasília, DF, Brasil",,,,1969-08-15,2013-04-22T09:04:54
Conselho Administrativo de Defesa Econômica,CADE,br/conselho-administrativo-defesa-economica,conselho-administrativo-defesa-economica,,Ministério da Justiça,br/ministerio-justica,,http://www.cade.gov.br,Brazil,BR,SIORG XML Extraction,http://repositorio.dados.gov.br/governo-politica/administracao-publica/estrutura-organizacional/,,"SCN, Qd.02, Projeção C, Brasília, DF, Brasil",,,,2005-01-14,2013-04-22T09:04:54
Conselho Nacional de Desenvolvimento Científico e Tecnológico,CNPq,br/conselho-nacional-desenvolvimento-cientifico-tecnologico,conselho-nacional-desenvolvimento-cientifico-tecnologico,,"Ministério da Ciência, Tecnologia e Inovação",br/ministerio-ciencia-tecnologia-inovacao,,http://www.cnpq.br/,Brazil,BR,SIORG XML Extraction,http://repositorio.dados.gov.br/governo-politica/administracao-publica/estrutura-organizacional/,,"SEPN, Quadra 507 3º andar sala 300, Brasília, DF, Brasil",,,,2003-06-09,2013-04-22T09:04:54
Controladoria-Geral da União,CGU,br/controladoria-geral-uniao,controladoria-geral-uniao,,Presidência da República,br/presidencia-republica,,http://,Brazil,BR,SIORG XML Extraction,http://repositorio.dados.gov.br/governo-politica/administracao-publica/estrutura-organizacional/,,"SAS Quadra 01 Bloco Ed. Darcy Ribeiro, Brasília, DF, Brasil",,,,2008-11-20,2013-04-22T09:04:54
Coordenação de Aperfeiçoamento de Pessoal de Nível Superior,CAPES,br/coordenacao-aperfeicoamento-pessoal-nivel-superior,coordenacao-aperfeicoamento-pessoal-nivel-superior,,Ministério da Educação,br/ministerio-educacao,,http://www.capes.gov.br,Brazil,BR,SIORG XML Extraction,http://repositorio.dados.gov.br/governo-politica/administracao-publica/estrutura-organizacional/,,"Esplanada dos Ministérios, Bloco L, Anexo I - MEC, 2º andar, Brasília, DF, Brasil",,,,2007-12-20,2013-04-22T09:04:54
Departamento Nacional de Infraestrutura de Transportes,DNIT/MT,br/departamento-nacional-infraestrutura-transportes,departamento-nacional-infraestrutura-transportes,,Ministério dos Transportes,br/ministerio-transportes,,http://www.dnit.gov.br,Brazil,BR,SIORG XML Extraction,http://repositorio.dados.gov.br/governo-politica/administracao-publica/estrutura-organizacional/,,"SAN. Q.03, Lote A, N/O Ed. Núcleo dos Transportes , Brasília, DF, Brasil",,,,2006-04-27,2013-04-22T09:04:54
Departamento Nacional de Obras Contra as Secas,DNOCS,br/departamento-nacional-obras-contra-secas,departamento-nacional-obras-contra-secas,,Ministério da Integração Nacional,br/ministerio-integracao-nacional,,http://www.dnocs.gov.br,Brazil,BR,SIORG XML Extraction,http://repositorio.dados.gov.br/governo-politica/administracao-publica/estrutura-organizacional/,,"Avenida Duque de Caxias, 1700, Fortaleza, CE, Brasil",,,,2003-03-27,2013-04-22T09:04:54
Departamento Nacional de Produção Mineral,DNPM,br/departamento-nacional-producao-mineral,departamento-nacional-producao-mineral,,Ministério de Minas e Energia,br/ministerio-minas-energia,,http://www.dnpm.gov.br/,Brazil,BR,SIORG XML Extraction,http://repositorio.dados.gov.br/governo-politica/administracao-publica/estrutura-organizacional/,,"SAN, Quadra 01, Bloco B, 3º andar , Brasília, DF, Brasil",,,,1994-05-02,2013-04-22T09:04:54
Diretoria do Serviço de Material e Patrimônio,DSMP,br/diretoria-servico-material-patrimonio,diretoria-servico-material-patrimonio,,,65936,,,Brazil,BR,SIORG XML Extraction,http://repositorio.dados.gov.br/governo-politica/administracao-publica/estrutura-organizacional/,,"SEPN, 513 Norte, lotes 2 e 3 , Brasília, DF, Brasil",,,,2002-04-03,2013-04-22T09:04:54
Empresa Brasil de Comunicação S.A.,EBC,br/empresa-brasil-comunicacao-sa,empresa-brasil-comunicacao-sa,,Secretaria de Comunicação Social da Presidência da República,br/secretaria-comunicacao-social-presidencia-republica,,http://www.radiobras.gov.br/,Brazil,BR,SIORG XML Extraction,http://repositorio.dados.gov.br/governo-politica/administracao-publica/estrutura-organizacional/,,"SCRN 702/3 Ed. Radiobrás, Bloco B , Brasília, DF, Brasil",,,,2007-10-10,2013-04-22T09:04:54
Empresa Brasileira de Administração de Petróleo e Gás Natural S.A.- Pré-Sal Petróleo S.A,PPSA,br/empresa-brasileira-administracao-petroleo-gas-natural-sa--pre-sal-petroleo-sa,empresa-brasileira-administracao-petroleo-gas-natural-sa--pre-sal-petroleo-sa,,Ministério de Minas e Energia,br/ministerio-minas-energia,,,Brazil,BR,SIORG XML Extraction,http://repositorio.dados.gov.br/governo-politica/administracao-publica/estrutura-organizacional/,,"Brasília, DF, Brasil",,,,2010-08-02,2013-04-22T09:04:54
Empresa Brasileira de Correios e Telégrafos,ECT,br/empresa-brasileira-correios-telegrafos,empresa-brasileira-correios-telegrafos,,Ministério das Comunicações,br/ministerio-comunicacoes,,http://www.correios.com.br,Brazil,BR,SIORG XML Extraction,http://repositorio.dados.gov.br/governo-politica/administracao-publica/estrutura-organizacional/,,"SBN Conj. 03 Bloco A 19º Andar, Brasília, DF, Brasil",,,,1969-03-20,2013-04-22T09:04:54
Empresa Brasileira de Hemoderivados e Biotecnologia,HEMOBRÁS,br/empresa-brasileira-hemoderivados-biotecnologia,empresa-brasileira-hemoderivados-biotecnologia,,Ministério da Saúde,br/ministerio-saude,,http://portal.saude.gov.br/saude/hemobras/,Brazil,BR,SIORG XML Extraction,http://repositorio.dados.gov.br/governo-politica/administracao-publica/estrutura-organizacional/,,"SCN quadra 01 - Projeção E,15º andar , Ed. Central Park , Brasília, DF, Brasil",,,,2004-12-02,2013-04-22T09:04:54
Empresa Brasileira de Infraestrutura Aeroportuária,INFRAERO,br/empresa-brasileira-infraestrutura-aeroportuaria,empresa-brasileira-infraestrutura-aeroportuaria,,Secretaria de Aviação Civil da Presidência da República,br/secretaria-aviacao-civil-presidencia-republica,,http://www.infraero.gov.br/,Brazil,BR,SIORG XML Extraction,http://repositorio.dados.gov.br/governo-politica/administracao-publica/estrutura-organizacional/,,"SCS Qd. 04 Bloco A, nº 58 - 6º andar, Edifício Infraero, Brasília, DF, Brasil",,,,1972-12-12,2013-04-22T09:04:54
Empresa Brasileira de Pesquisa Agropecuária,EMBRAPA,br/empresa-brasileira-pesquisa-agropecuaria,empresa-brasileira-pesquisa-agropecuaria,,"Ministério da Agricultura, Pecuária e Abastecimento",br/ministerio-agricultura-pecuaria-abastecimento,,http://www.embrapa.br/,Brazil,BR,SIORG XML Extraction,http://repositorio.dados.gov.br/governo-politica/administracao-publica/estrutura-organizacional/,,"Parque Estação Biológica - PqEB s/n°, Brasília, DF, Brasil",,,,1972-02-07,2013-04-22T09:04:54
Empresa Brasileira de Serviços Hospitalares,EBSERH,br/empresa-brasileira-servicos-hospitalares,empresa-brasileira-servicos-hospitalares,,Ministério da Educação,br/ministerio-educacao,,,Brazil,BR,SIORG XML Extraction,http://repositorio.dados.gov.br/governo-politica/administracao-publica/estrutura-organizacional/,,", Brasil",,,,2011-12-15,2013-04-22T09:04:54
Empresa Gerencial de Projetos Navais,EMGEPRON,br/empresa-gerencial-projetos-navais,empresa-gerencial-projetos-navais,,Comando da Marinha,br/comando-marinha,,http://www.emgepron.mar.mil.br/,Brazil,BR,SIORG XML Extraction,http://repositorio.dados.gov.br/governo-politica/administracao-publica/estrutura-organizacional/,,"Ilha das Cobras Ed. 08,  Andar 3, Arsenal de Marinha , Rio de Janeiro, RJ, Brasil",,,,1982-06-09,2013-04-22T09:04:54
Empresa Gestora de Ativos,EMGEA,br/empresa-gestora-ativos,empresa-gestora-ativos,,Ministério da Fazenda,br/ministerio-fazenda,,http://www.fazenda.gov.br/emgea/,Brazil,BR,SIORG XML Extraction,http://repositorio.dados.gov.br/governo-politica/administracao-publica/estrutura-organizacional/,,"SBS - Qd. 02, SETOR BANCÁRIO SUL, Brasília, DF, Brasil",,,,2003-03-24,2013-04-22T09:04:54
Empresa de Pesquisa Energética,EPE,br/empresa-pesquisa-energetica,empresa-pesquisa-energetica,,Ministério de Minas e Energia,br/ministerio-minas-energia,,http//www.epe.gov.br,Brazil,BR,SIORG XML Extraction,http://repositorio.dados.gov.br/governo-politica/administracao-publica/estrutura-organizacional/,,"Avenida Rio Branco nº 01 , 11º Andar , Rio de Janeiro, RJ, Brasil",,,,2004-03-15,2013-04-22T09:04:54
Empresa de Tecnologia e Informações da Previdência Social,DATAPREV,br/empresa-tecnologia-informacoes-previdencia-social,empresa-tecnologia-informacoes-previdencia-social,,Ministério da Previdência Social,br/ministerio-previdencia-social,,http://www.dataprev.gov.br/,Brazil,BR,SIORG XML Extraction,http://repositorio.dados.gov.br/governo-politica/administracao-publica/estrutura-organizacional/,,"SAS Quadra 1, Bloco E/F, Brasília, DF, Brasil",,,,2003-08-26,2013-04-22T09:04:54
Empresa de Trens Urbanos de Porto Alegre S.A,TRENSURB,br/empresa-trens-urbanos-porto-alegre-sa,empresa-trens-urbanos-porto-alegre-sa,,Ministério das Cidades,br/ministerio-cidades,,www.trensurb.com.br,Brazil,BR,SIORG XML Extraction,http://repositorio.dados.gov.br/governo-politica/administracao-publica/estrutura-organizacional/,,"Av. Ernesto Neugebauer, 1985, Humaitá, Porto Alegre, RS, Brasil",,,,2003-04-03,2013-04-22T09:04:54
Financiadora de Estudos e Projetos,FINEP,br/financiadora-estudos-projetos,financiadora-estudos-projetos,,"Ministério da Ciência, Tecnologia e Inovação",br/ministerio-ciencia-tecnologia-inovacao,,http://www.finep.gov.br/,Brazil,BR,SIORG XML Extraction,http://repositorio.dados.gov.br/governo-politica/administracao-publica/estrutura-organizacional/,,"Praia do Flamengo N 200, 1,2,3,4,5,13,24 E 25, Rio de Janeiro, RJ, Brasil",,,,2003-06-09,2013-04-22T09:04:54
Fundação Alexandre de Gusmão,FUNAG,br/fundacao-alexandre-gusmao,fundacao-alexandre-gusmao,,Ministério das Relações Exteriores,br/ministerio-relacoes-exteriores,,http://www.funag.gov.br,Brazil,BR,SIORG XML Extraction,http://repositorio.dados.gov.br/governo-politica/administracao-publica/estrutura-organizacional/,,"Ministério das Relações Exteriores, Bloco H - Anexo II, Térreo, Brasília, DF, Brasil",,,,2006-12-06,2013-04-22T09:04:54
Fundação Biblioteca Nacional,FBN,br/fundacao-biblioteca-nacional,fundacao-biblioteca-nacional,,Ministério da Cultura,br/ministerio-cultura,,http://www.bn.br/,Brazil,BR,SIORG XML Extraction,http://repositorio.dados.gov.br/governo-politica/administracao-publica/estrutura-organizacional/,,"Avenida Rio Branco, 219, 4º Andar, Centro, Rio de Janeiro, RJ, Brasil",,,,2004-04-07,2013-04-22T09:04:54
Fundação Casa de Rui Barbosa,FCRB,br/fundacao-casa-rui-barbosa,fundacao-casa-rui-barbosa,,Ministério da Cultura,br/ministerio-cultura,,http://www.casaruibarbosa.gov.br/,Brazil,BR,SIORG XML Extraction,http://repositorio.dados.gov.br/governo-politica/administracao-publica/estrutura-organizacional/,,"Rua São Clemente, 134, Botafogo, Rio de Janeiro, RJ, Brasil",,,,2004-04-07,2013-04-22T09:04:54
Fundação Cultural Palmares,FCP,br/fundacao-cultural-palmares,fundacao-cultural-palmares,,Ministério da Cultura,br/ministerio-cultura,,http:/www.minc.gov.br/fcp/,Brazil,BR,SIORG XML Extraction,http://repositorio.dados.gov.br/governo-politica/administracao-publica/estrutura-organizacional/,,"SBN, Quadra 02, Edifício Central Brasília, Bloco F 1º Subsolo, Brasília, DF, Brasil",,,,2009-05-15,2013-04-22T09:04:54
Fundação Escola Nacional de Administração Pública,ENAP,br/fundacao-escola-nacional-administracao-publica,fundacao-escola-nacional-administracao-publica,,"Ministério do Planejamento, Orçamento e Gestão",br/ministerio-planejamento-orcamento-gestao,,www.enap.gov.br,Brazil,BR,SIORG XML Extraction,http://repositorio.dados.gov.br/governo-politica/administracao-publica/estrutura-organizacional/,,"SAIS, Área 2A, Brasília, DF, Brasil",,,,2008-09-11,2013-04-22T09:04:54
Fundação Habitacional do Exército,FHE,br/fundacao-habitacional-exercito,fundacao-habitacional-exercito,,Comando do Exército,br/comando-exercito,,http://www.soleis.adv.br/poupexfundacaoexercito.htm,Brazil,BR,SIORG XML Extraction,http://repositorio.dados.gov.br/governo-politica/administracao-publica/estrutura-organizacional/,,"Avenida Duque de Caxias s/nº, Brasília, DF, Brasil",,,,1989-04-13,2013-04-22T09:04:54
Fundação Instituto Brasileiro de Geografia e Estatística,IBGE,br/fundacao-instituto-brasileiro-geografia-estatistica,fundacao-instituto-brasileiro-geografia-estatistica,,"Ministério do Planejamento, Orçamento e Gestão",br/ministerio-planejamento-orcamento-gestao,,http://www.ibge.gov.br,Brazil,BR,SIORG XML Extraction,http://repositorio.dados.gov.br/governo-politica/administracao-publica/estrutura-organizacional/,,"AV. BEIRA MAR, 436 - 13° ANDAR, Rio de Janeiro, RJ, Brasil",,,,2003-06-13,2013-04-22T09:04:54
Fundação Instituto de Pesquisa Econômica Aplicada,IPEA,br/fundacao-instituto-pesquisa-economica-aplicada,fundacao-instituto-pesquisa-economica-aplicada,,Secretaria de Assuntos Estratégicos da Presidência da República,br/secretaria-assuntos-estrategicos-presidencia-republica,,http://www.ipea.gov.br,Brazil,BR,SIORG XML Extraction,http://repositorio.dados.gov.br/governo-politica/administracao-publica/estrutura-organizacional/,,"SBS, Edifício BNDES, Quadra 1, Bloco J sala 1501, Brasília, DF, Brasil",,,,2010-03-29,2013-04-22T09:04:54
Fundação Joaquim Nabuco,FUNDAJ,br/fundacao-joaquim-nabuco,fundacao-joaquim-nabuco,,Ministério da Educação,br/ministerio-educacao,,http://www.fundaj.gov.br/,Brazil,BR,SIORG XML Extraction,http://repositorio.dados.gov.br/governo-politica/administracao-publica/estrutura-organizacional/,,"Avenida Dezessete de Agosto, 2187, Recife, PE, Brasil",,,,2007-12-20,2013-04-22T09:04:54
"Fundação Jorge Duprat Figueiredo, de Segurança e Medicina do Trabalho",FUNDACENTRO,br/fundacao-jorge-duprat-figueiredo-seguranca-medicina-trabalho,fundacao-jorge-duprat-figueiredo-seguranca-medicina-trabalho,,Ministério do Trabalho e Emprego,br/ministerio-trabalho-emprego,,http://www.fundacentro.gov.br,Brazil,BR,SIORG XML Extraction,http://repositorio.dados.gov.br/governo-politica/administracao-publica/estrutura-organizacional/,,"Rua Capote Valente, 710, São Paulo, SP, Brasil",,,,2003-04-02,2013-04-22T09:04:54
Fundação Nacional de Artes,FUNARTE,br/fundacao-nacional-artes,fundacao-nacional-artes,,Ministério da Cultura,br/ministerio-cultura,,http://www.funarte.gov.br,Brazil,BR,SIORG XML Extraction,http://repositorio.dados.gov.br/governo-politica/administracao-publica/estrutura-organizacional/,,"Rua da Imprensa, 16 - 5º andar - sl. 511, Rio de Janeiro, RJ, Brasil",,,,2004-04-07,2013-04-22T09:04:54
Fundação Nacional do Índio,FUNAI,br/fundacao-nacional-indio,fundacao-nacional-indio,,Ministério da Justiça,br/ministerio-justica,,http://www.funai.gov.br,Brazil,BR,SIORG XML Extraction,http://repositorio.dados.gov.br/governo-politica/administracao-publica/estrutura-organizacional/,,"SEPS Quadra 702/902 Projeção A, Ed. Lex, Brasília, DF, Brasil",,,,2009-12-28,2013-04-22T09:04:54
Fundação Nacional de Saúde,FUNASA,br/fundacao-nacional-saude,fundacao-nacional-saude,,Ministério da Saúde,br/ministerio-saude,,http://www.funasa.gov.br,Brazil,BR,SIORG XML Extraction,http://repositorio.dados.gov.br/governo-politica/administracao-publica/estrutura-organizacional/,,"SAS, Quadra 4, Bloco N, 5º Andar, Brasília, DF, Brasil",,,,2010-10-19,2013-04-22T09:04:54
Fundação Osório,FOSORIO,br/fundacao-osorio,fundacao-osorio,,Comando do Exército,br/comando-exercito,,http://www.fosorio.ensino.eb.br/,Brazil,BR,SIORG XML Extraction,http://repositorio.dados.gov.br/governo-politica/administracao-publica/estrutura-organizacional/,,"Rua Paula Ramos, 52, Rio Comprido, RJ, Brasil",,,,1996-06-27,2013-04-22T09:04:54
Fundação Oswaldo Cruz,FIOCRUZ,br/fundacao-oswaldo-cruz,fundacao-oswaldo-cruz,,Ministério da Saúde,br/ministerio-saude,,http://www.fiocruz.br,Brazil,BR,SIORG XML Extraction,http://repositorio.dados.gov.br/governo-politica/administracao-publica/estrutura-organizacional/,,"Avenida Brasil, 4365, Manguinhos, Rio de Janeiro, RJ, Brasil",,,,2009-05-27,2013-04-22T09:04:54
Fundação Universidade do Amazonas,UFAM,br/fundacao-universidade-amazonas,fundacao-universidade-amazonas,,Ministério da Educação,br/ministerio-educacao,,http://www.fua.br,Brazil,BR,SIORG XML Extraction,http://repositorio.dados.gov.br/governo-politica/administracao-publica/estrutura-organizacional/,,"Avenida General Rodrigo Octávio Mourão Ramos, 3000, Manaus, AM, Brasil",,,,1962-06-12,2013-04-22T09:04:54
Fundação Universidade de Brasília,UNB,br/fundacao-universidade-brasilia,fundacao-universidade-brasilia,,Ministério da Educação,br/ministerio-educacao,,http://www.unb.br,Brazil,BR,SIORG XML Extraction,http://repositorio.dados.gov.br/governo-politica/administracao-publica/estrutura-organizacional/,,"Campus Universitário Darcy Ribeiro Gleba- A - Reit, Brasília, DF, Brasil",,,,2000-12-14,2013-04-22T09:04:54
Fundação Universidade Federal do ABC,UFABC,br/fundacao-universidade-federal-abc,fundacao-universidade-federal-abc,,Ministério da Educação,br/ministerio-educacao,,http:// www.ufabc.edu.br ,Brazil,BR,SIORG XML Extraction,http://repositorio.dados.gov.br/governo-politica/administracao-publica/estrutura-organizacional/,,"Av. Industrial, 3.330 - Santo André, Santo André, SP, Brasil",,,,2005-07-26,2013-04-22T09:04:54
Fundação Universidade Federal do Acre,UFAC,br/fundacao-universidade-federal-acre,fundacao-universidade-federal-acre,,Ministério da Educação,br/ministerio-educacao,,http://yaco.ufac.br,Brazil,BR,SIORG XML Extraction,http://repositorio.dados.gov.br/governo-politica/administracao-publica/estrutura-organizacional/,,"Campus Universitário Reitor Aulio Gelio Alves Souz, Caixa Postal 500, Rio Branco, AC, Brasil",,,,1974-10-17,2013-04-22T09:04:54
Fundação Universidade Federal do Amapá,UNIFAP,br/fundacao-universidade-federal-amapa,fundacao-universidade-federal-amapa,,Ministério da Educação,br/ministerio-educacao,,http://www.unifap.br,Brazil,BR,SIORG XML Extraction,http://repositorio.dados.gov.br/governo-politica/administracao-publica/estrutura-organizacional/,,"Rodovia Juscelino Kubitschek, Km 2 Estrada Fazenda, Macapá, AP, Brasil",,,,1990-03-02,2013-04-22T09:04:54
Fundação Universidade Federal de Ciências da Saúde de Porto Alegre,UFCSPA,br/fundacao-universidade-federal-ciencias-saude-porto-alegre,fundacao-universidade-federal-ciencias-saude-porto-alegre,,Ministério da Educação,br/ministerio-educacao,,http://www.fffcmpa.tche.br/,Brazil,BR,SIORG XML Extraction,http://repositorio.dados.gov.br/governo-politica/administracao-publica/estrutura-organizacional/,,"Rua Sarmento Leite, 245, Porto Alegre, RS, Brasil",,,,1980-12-11,2013-04-22T09:04:54
Fundação Universidade Federal da Grande Dourados,UFGD,br/fundacao-universidade-federal-grande-dourados,fundacao-universidade-federal-grande-dourados,,Ministério da Educação,br/ministerio-educacao,,,Brazil,BR,SIORG XML Extraction,http://repositorio.dados.gov.br/governo-politica/administracao-publica/estrutura-organizacional/,,"Dourados, MS, Brasil",,,,2008-07-01,2013-04-22T09:04:54
Fundação Universidade Federal do Maranhão,UFMA,br/fundacao-universidade-federal-maranhao,fundacao-universidade-federal-maranhao,,Ministério da Educação,br/ministerio-educacao,,http://www.ufma.br,Brazil,BR,SIORG XML Extraction,http://repositorio.dados.gov.br/governo-politica/administracao-publica/estrutura-organizacional/,,"Praça Gonçalves Dias, 351, Centro Campus Universitário, São Luís, MA, Brasil",,,,1966-10-21,2013-04-22T09:04:54
Fundação Universidade Federal de Mato Grosso,UFMT,br/fundacao-universidade-federal-mato-grosso,fundacao-universidade-federal-mato-grosso,,Ministério da Educação,br/ministerio-educacao,,http:/www.ufmt.br/,Brazil,BR,SIORG XML Extraction,http://repositorio.dados.gov.br/governo-politica/administracao-publica/estrutura-organizacional/,,"Avenida Fernando Corrêa da Costa, S/n Campus Universitário, Cuiabá, MT, Brasil",,,,1970-12-10,2013-04-22T09:04:54
Fundação Universidade Federal de Mato Grosso do Sul,UFMS,br/fundacao-universidade-federal-mato-grosso-sul,fundacao-universidade-federal-mato-grosso-sul,,Ministério da Educação,br/ministerio-educacao,,http:/www.ufms.br/,Brazil,BR,SIORG XML Extraction,http://repositorio.dados.gov.br/governo-politica/administracao-publica/estrutura-organizacional/,,"Avenida Costa e Silva, Cidade Universitária Caixa Postal 549, Campo Grande, MS, Brasil",,,,1979-07-05,2013-04-22T09:04:54
Fundação Universidade Federal de Ouro Preto,UFOP,br/fundacao-universidade-federal-ouro-preto,fundacao-universidade-federal-ouro-preto,,Ministério da Educação,br/ministerio-educacao,,http://www.ufop.br,Brazil,BR,SIORG XML Extraction,http://repositorio.dados.gov.br/governo-politica/administracao-publica/estrutura-organizacional/,,"Rua Diogo Vasconcelos, 122, Ouro Preto, MG, Brasil",,,,1969-08-21,2013-04-22T09:04:54
Fundação Universidade Federal do Pampa,UNIPAMPA,br/fundacao-universidade-federal-pampa,fundacao-universidade-federal-pampa,,Ministério da Educação,br/ministerio-educacao,,http://www.unipampa.edu.br,Brazil,BR,SIORG XML Extraction,http://repositorio.dados.gov.br/governo-politica/administracao-publica/estrutura-organizacional/,,"Bagé, RS, Brasil",,,,2008-01-11,2013-04-22T09:04:54
Fundação Universidade Federal de Pelotas,UFPel,br/fundacao-universidade-federal-pelotas,fundacao-universidade-federal-pelotas,,Ministério da Educação,br/ministerio-educacao,,http://www.ufpel.tche.br/,Brazil,BR,SIORG XML Extraction,http://repositorio.dados.gov.br/governo-politica/administracao-publica/estrutura-organizacional/,,"Rua Tiradentes, 2515/A - Campus Universitário, Pelotas, RS, Brasil",,,,1977-04-22,2013-04-22T09:04:54
Fundação Universidade Federal do Piauí,UFPI,br/fundacao-universidade-federal-piaui,fundacao-universidade-federal-piaui,,Ministério da Educação,br/ministerio-educacao,,http://www.ufpi.br,Brazil,BR,SIORG XML Extraction,http://repositorio.dados.gov.br/governo-politica/administracao-publica/estrutura-organizacional/,,"Campus Universitário, , Teresina, PI, Brasil",,,,1968-11-12,2013-04-22T09:04:54
Fundação Universidade Federal do Rio Grande,FURG,br/fundacao-universidade-federal-rio-grande,fundacao-universidade-federal-rio-grande,,Ministério da Educação,br/ministerio-educacao,,http://www.furg.br/,Brazil,BR,SIORG XML Extraction,http://repositorio.dados.gov.br/governo-politica/administracao-publica/estrutura-organizacional/,,"Rua Eng. Alfredo Huch, 475, Rio Grande, RS, Brasil",,,,1969-08-20,2013-04-22T09:04:54
Fundação Universidade Federal de Rondônia,UNIR,br/fundacao-universidade-federal-rondonia,fundacao-universidade-federal-rondonia,,Ministério da Educação,br/ministerio-educacao,,http://www.unir.br/,Brazil,BR,SIORG XML Extraction,http://repositorio.dados.gov.br/governo-politica/administracao-publica/estrutura-organizacional/,,"Av. Presidente Dutra, 2965, Porto Velho, RO, Brasil",,,,1998-10-13,2013-04-22T09:04:54
Fundação Universidade Federal de Roraima,UFRR,br/fundacao-universidade-federal-roraima,fundacao-universidade-federal-roraima,,Ministério da Educação,br/ministerio-educacao,,http://www.ufrr.br/,Brazil,BR,SIORG XML Extraction,http://repositorio.dados.gov.br/governo-politica/administracao-publica/estrutura-organizacional/,,"Br 174, s/n, Campus do Paricarana, Boa Vista, RR, Brasil",,,,2003-12-16,2013-04-22T09:04:54
Fundação Universidade Federal de São Carlos,UFSCar,br/fundacao-universidade-federal-sao-carlos,fundacao-universidade-federal-sao-carlos,,Ministério da Educação,br/ministerio-educacao,,http://www.ufscar.br/,Brazil,BR,SIORG XML Extraction,http://repositorio.dados.gov.br/governo-politica/administracao-publica/estrutura-organizacional/,,"Rodovia Washington Luís , São Carlos, SP, Brasil",,,,1969-02-25,2013-04-22T09:04:54
Fundação Universidade Federal de São João Del Rei,FUNRei,br/fundacao-universidade-federal-sao-joao-del-rei,fundacao-universidade-federal-sao-joao-del-rei,,Ministério da Educação,br/ministerio-educacao,, http://www.ufsj.edu.br,Brazil,BR,SIORG XML Extraction,http://repositorio.dados.gov.br/governo-politica/administracao-publica/estrutura-organizacional/,,"Praça Frei Orlando, 170 - Centro Campus Santo Antônio, São João Del Rei, MG, Brasil",,,,2006-07-03,2013-04-22T09:04:54
Fundação Universidade Federal de Sergipe,UFS,br/fundacao-universidade-federal-sergipe,fundacao-universidade-federal-sergipe,,Ministério da Educação,br/ministerio-educacao,,http://www.ufs.br/,Brazil,BR,SIORG XML Extraction,http://repositorio.dados.gov.br/governo-politica/administracao-publica/estrutura-organizacional/,,"Av. Mal. Rondon, s/n - Cidade Universitária, São Cristovão, SE, Brasil",,,,1967-02-28,2013-04-22T09:04:54
Fundação Universidade Federal do Tocantins,UFT,br/fundacao-universidade-federal-tocantins,fundacao-universidade-federal-tocantins,,Ministério da Educação,br/ministerio-educacao,,http://www.unb.br/reitor/reitoria-informa/uft/informes_noticias/index3,Brazil,BR,SIORG XML Extraction,http://repositorio.dados.gov.br/governo-politica/administracao-publica/estrutura-organizacional/,,"Avenida Fernandes Lima, 72 , Brasil",,,,2000-10-23,2013-04-22T09:04:54
Fundação Universidade Federal do Vale do São Francisco,UNIVASF,br/fundacao-universidade-federal-vale-sao-francisco,fundacao-universidade-federal-vale-sao-francisco,,Ministério da Educação,br/ministerio-educacao,,http://www.univasf.edu.br,Brazil,BR,SIORG XML Extraction,http://repositorio.dados.gov.br/governo-politica/administracao-publica/estrutura-organizacional/,,"Avenida José de Sá Maniçoba, S/N, Centro, Petrolina, PE, Brasil",,,,2002-06-27,2013-04-22T09:04:54
Fundação Universidade Federal de Viçosa,UFV,br/fundacao-universidade-federal-vicosa,fundacao-universidade-federal-vicosa,,Ministério da Educação,br/ministerio-educacao,,http://www.ufv.br,Brazil,BR,SIORG XML Extraction,http://repositorio.dados.gov.br/governo-politica/administracao-publica/estrutura-organizacional/,,"Avenida P. H. Rolfs s/n, Campus UFV , Viçosa, MG, Brasil",,,,1969-05-08,2013-04-22T09:04:54
Fundo Nacional de Desenvolvimento,FND,br/fundo-nacional-desenvolvimento,fundo-nacional-desenvolvimento,,"Ministério do Desenvolvimento, Indústria e Comércio Exterior",br/ministerio-desenvolvimento-industria-comercio-exterior,,http://www.bndes.gov.br/empresa/desempenho/fnd/default.asp,Brazil,BR,SIORG XML Extraction,http://repositorio.dados.gov.br/governo-politica/administracao-publica/estrutura-organizacional/,,"Avenida República do Chile, 100, 11 Andar, Rio de Janeiro, RJ, Brasil",,,,1991-08-21,2013-04-22T09:04:54
Fundo Nacional de Desenvolvimento da Educação,FNDE,br/fundo-nacional-desenvolvimento-educacao,fundo-nacional-desenvolvimento-educacao,,Ministério da Educação,br/ministerio-educacao,,http://www.fnde.gov.br/,Brazil,BR,SIORG XML Extraction,http://repositorio.dados.gov.br/governo-politica/administracao-publica/estrutura-organizacional/,,"SBS, Quadra 02, Bloco F, 5º andar, sala 508 Edifício Áurea, Brasília, DF, Brasil",,,,2007-12-20,2013-04-22T09:04:54
Gabinete Pessoal do Presidente da República,GP-PR,br/gabinete-pessoal-presidente-republica,gabinete-pessoal-presidente-republica,,Presidência da República,br/presidencia-republica,,http://www.planalto.gov.br,Brazil,BR,SIORG XML Extraction,http://repositorio.dados.gov.br/governo-politica/administracao-publica/estrutura-organizacional/,,"Palácio do Planalto, 3º Andar Pça dos Três Poderes, Brasília, DF, Brasil",,,,2007-08-17,2013-04-22T09:04:54
Gabinete da Presidência,Gpr,br/gabinete-presidencia,gabinete-presidencia,,,65129,,,Brazil,BR,SIORG XML Extraction,http://repositorio.dados.gov.br/governo-politica/administracao-publica/estrutura-organizacional/,,"Av. Pres. Antonio Carlos, 251 sala 864 8º e 9º and , Rio de Janeiro, RJ, Brasil",,,,2002-04-02,2013-04-22T09:04:54
Gabinete de Segurança Institucional da Presidência da República,GSI-PR,br/gabinete-seguranca-institucional-presidencia-republica,gabinete-seguranca-institucional-presidencia-republica,,Presidência da República,br/presidencia-republica,,http://www.planalto.gov.br/militar/camilitar.htm,Brazil,BR,SIORG XML Extraction,http://repositorio.dados.gov.br/governo-politica/administracao-publica/estrutura-organizacional/,,"Palácio do Planalto, 4 Andar, Brasília, DF, Brasil",,,,2009-08-11,2013-04-22T09:04:54
Hospital de Clínicas de Porto Alegre,HCPA,br/hospital-clinicas-porto-alegre,hospital-clinicas-porto-alegre,,Ministério da Educação,br/ministerio-educacao,,http://www.hcpa.ufrgs.br/index.html,Brazil,BR,SIORG XML Extraction,http://repositorio.dados.gov.br/governo-politica/administracao-publica/estrutura-organizacional/,,"Rua Ramiro Barcelos, 2350, Bairro: Bonfim , Porto Alegre, RS, Brasil",,,,1970-09-02,2013-04-22T09:04:54
Hospital Cristo Redentor S/A,HCR,br/hospital-cristo-redentor-sa,hospital-cristo-redentor-sa,,Ministério da Saúde,br/ministerio-saude,,http://www.ghc.com.br/hcr.html,Brazil,BR,SIORG XML Extraction,http://repositorio.dados.gov.br/governo-politica/administracao-publica/estrutura-organizacional/,,"Rua Domingos Rubo, 20, Porto Alegre, RS, Brasil",,,,2003-06-09,2013-04-22T09:04:54
Hospital Fêmina S/A,HF,br/hospital-femina-sa,hospital-femina-sa,,Ministério da Saúde,br/ministerio-saude,,http://www.ghc.com.br/femina.html,Brazil,BR,SIORG XML Extraction,http://repositorio.dados.gov.br/governo-politica/administracao-publica/estrutura-organizacional/,,"Rua Mostardeiro, 17, Porto Alegre, RS, Brasil",,,,2003-06-09,2013-04-22T09:04:54
Hospital Nossa Senhora da Conceição S/A,HNSC,br/hospital-nossa-senhora-conceicao-sa,hospital-nossa-senhora-conceicao-sa,,Ministério da Saúde,br/ministerio-saude,,http://www.ghc.com.br/hnsc.html,Brazil,BR,SIORG XML Extraction,http://repositorio.dados.gov.br/governo-politica/administracao-publica/estrutura-organizacional/,,"RUA FRANCISCO TREIN, 596, Porto Alegre, RS, Brasil",,,,2003-06-09,2013-04-22T09:04:54
Indústria de Material Bélico do Brasil,IMBEL,br/industria-material-belico-brasil,industria-material-belico-brasil,,Comando do Exército,br/comando-exercito,,http://www.imbel.gov.br/,Brazil,BR,SIORG XML Extraction,http://repositorio.dados.gov.br/governo-politica/administracao-publica/estrutura-organizacional/,,"QGEX Bloco H 3º Andar SMU, Brasília, DF, Brasil",,,,1967-02-25,2013-04-22T09:04:54
Indústrias Nucleares do Brasil S/A,INB,br/industrias-nucleares-brasil-sa,industrias-nucleares-brasil-sa,,Comissão Nacional de Energia Nuclear,br/comissao-nacional-energia-nuclear,,http://www.inb.gov.br/,Brazil,BR,SIORG XML Extraction,http://repositorio.dados.gov.br/governo-politica/administracao-publica/estrutura-organizacional/,,"Rua Mena Barreto, 161, Botafogo, Rio de Janeiro, RJ, Brasil",,,,2003-05-12,2013-04-22T09:04:54
Instituto Brasileiro do Meio Ambiente e dos Recursos Naturais Renováveis,IBAMA,br/instituto-brasileiro-meio-ambiente-recursos-naturais-renovaveis,instituto-brasileiro-meio-ambiente-recursos-naturais-renovaveis,,Ministério do Meio Ambiente,br/ministerio-meio-ambiente,,http://www.ibama.gov.br,Brazil,BR,SIORG XML Extraction,http://repositorio.dados.gov.br/governo-politica/administracao-publica/estrutura-organizacional/,,"SCEN Trecho II Ed. Sede do Ibama, Brasília, DF, Brasil",,,,2007-04-26,2013-04-22T09:04:54
Instituto Brasileiro de Museus,IBRAM,br/instituto-brasileiro-museus,instituto-brasileiro-museus,,Ministério da Cultura,br/ministerio-cultura,,http://www.iphan.gov.br,Brazil,BR,SIORG XML Extraction,http://repositorio.dados.gov.br/governo-politica/administracao-publica/estrutura-organizacional/,,"SBN, Quadra 02, Bloco F, Edifício Central Brasília, 6º andar, Brasil",,,,2009-05-07,2013-04-22T09:04:54
Instituto Brasileiro de Turismo,EMBRATUR,br/instituto-brasileiro-turismo,instituto-brasileiro-turismo,,Ministério do Turismo,br/ministerio-turismo,,http://www.embratur.gov.br,Brazil,BR,SIORG XML Extraction,http://repositorio.dados.gov.br/governo-politica/administracao-publica/estrutura-organizacional/,,"SCN Quadra 02 Bloco G, Brasília, DF, Brasil",,,,2009-07-29,2013-04-22T09:04:54
Instituto Chico Mendes de Conservação da Biodiversidade,ICMBio,br/instituto-chico-mendes-conservacao-biodiversidade,instituto-chico-mendes-conservacao-biodiversidade,,Ministério do Meio Ambiente,br/ministerio-meio-ambiente,,http://www.icmbio.gov.br,Brazil,BR,SIORG XML Extraction,http://repositorio.dados.gov.br/governo-politica/administracao-publica/estrutura-organizacional/,,"EQSW 103/104, Bloco C, Complexo Administrativo Setor Sudoeste, Brasília, DF, Brasil",,,,2007-08-28,2013-04-22T09:04:54
"Instituto Federal de Educação, Ciência e Tecnologia do Acre",IFAC,br/instituto-federal-educacao-ciencia-tecnologia-acre,instituto-federal-educacao-ciencia-tecnologia-acre,,Ministério da Educação,br/ministerio-educacao,,http://,Brazil,BR,SIORG XML Extraction,http://repositorio.dados.gov.br/governo-politica/administracao-publica/estrutura-organizacional/,,"Av. Brasil , s/n, Rio Branco, AC, Brasil",,,,2008-12-29,2013-04-22T09:04:54
"Instituto Federal de Educação, Ciência e Tecnologia de Alagoas",IFAL,br/instituto-federal-educacao-ciencia-tecnologia-alagoas,instituto-federal-educacao-ciencia-tecnologia-alagoas,,Ministério da Educação,br/ministerio-educacao,,,Brazil,BR,SIORG XML Extraction,http://repositorio.dados.gov.br/governo-politica/administracao-publica/estrutura-organizacional/,,"Rua Mizael Domingues, 75, Maceió, AL, Brasil",,,,2008-12-29,2013-04-22T09:04:54
"Instituto Federal de Educação, Ciência e Tecnologia do Amapá",IF AP,br/instituto-federal-educacao-ciencia-tecnologia-amapa,instituto-federal-educacao-ciencia-tecnologia-amapa,,Ministério da Educação,br/ministerio-educacao,,http://,Brazil,BR,SIORG XML Extraction,http://repositorio.dados.gov.br/governo-politica/administracao-publica/estrutura-organizacional/,,"Avenida Ernestino Borges nº551, Macapá, AP, Brasil",,,,2008-12-29,2013-04-22T09:04:54
"Instituto Federal de Educação, Ciência e Tecnologia do Amazonas",IFAM,br/instituto-federal-educacao-ciencia-tecnologia-amazonas,instituto-federal-educacao-ciencia-tecnologia-amazonas,,Ministério da Educação,br/ministerio-educacao,,,Brazil,BR,SIORG XML Extraction,http://repositorio.dados.gov.br/governo-politica/administracao-publica/estrutura-organizacional/,,"Avenida Sete de Setembro Nº1975, Manaus, AM, Brasil",,,,2008-12-29,2013-04-22T09:04:54
"Instituto Federal de Educação, Ciência e Tecnologia da Bahia",IF BA,br/instituto-federal-educacao-ciencia-tecnologia-bahia,instituto-federal-educacao-ciencia-tecnologia-bahia,,Ministério da Educação,br/ministerio-educacao,,http://www.cefetba.br,Brazil,BR,SIORG XML Extraction,http://repositorio.dados.gov.br/governo-politica/administracao-publica/estrutura-organizacional/,,"Rua Amídio dos Santos, s/n - Prédio Administrativo, 4º Andar, Salvador, BA, Brasil",,,,2008-12-29,2013-04-22T09:04:54
"Instituto Federal de Educação, Ciência e Tecnologia Baiano",IF BAIANO,br/instituto-federal-educacao-ciencia-tecnologia-baiano,instituto-federal-educacao-ciencia-tecnologia-baiano,,Ministério da Educação,br/ministerio-educacao,,,Brazil,BR,SIORG XML Extraction,http://repositorio.dados.gov.br/governo-politica/administracao-publica/estrutura-organizacional/,,"Rua do Roxinol, nº 115, Salvador, BA, Brasil",,,,2008-12-29,2013-04-22T09:04:54
"Instituto Federal de Educação, Ciência e Tecnologia de Brasília",IFB,br/instituto-federal-educacao-ciencia-tecnologia-brasilia,instituto-federal-educacao-ciencia-tecnologia-brasilia,,Ministério da Educação,br/ministerio-educacao,,http://www.ifb.edu.br,Brazil,BR,SIORG XML Extraction,http://repositorio.dados.gov.br/governo-politica/administracao-publica/estrutura-organizacional/,,"SEPN 504, BL A, 3º ANDAR, ED. ANA CAROLINA, Brasília, DF, Brasil",,,,2009-08-18,2013-04-22T09:04:54
"Instituto Federal de Educação, Ciência e Tecnologia Catarinense",IFC,br/instituto-federal-educacao-ciencia-tecnologia-catarinense,instituto-federal-educacao-ciencia-tecnologia-catarinense,,Ministério da Educação,br/ministerio-educacao,,,Brazil,BR,SIORG XML Extraction,http://repositorio.dados.gov.br/governo-politica/administracao-publica/estrutura-organizacional/,,"Rua das Missões 100, Blumenau, SC, Brasil",,,,2008-12-29,2013-04-22T09:04:54
"Instituto Federal de Educação, Ciência e Tecnologia do Ceará",IF CE,br/instituto-federal-educacao-ciencia-tecnologia-ceara,instituto-federal-educacao-ciencia-tecnologia-ceara,,Ministério da Educação,br/ministerio-educacao,,,Brazil,BR,SIORG XML Extraction,http://repositorio.dados.gov.br/governo-politica/administracao-publica/estrutura-organizacional/,,"Iguatu, CE, Brasil",,,,2008-12-29,2013-04-22T09:04:54
"Instituto Federal de Educação, Ciência e Tecnologia do Espírito Santo",IF ES,br/instituto-federal-educacao-ciencia-tecnologia-espirito-santo,instituto-federal-educacao-ciencia-tecnologia-espirito-santo,,Ministério da Educação,br/ministerio-educacao,,,Brazil,BR,SIORG XML Extraction,http://repositorio.dados.gov.br/governo-politica/administracao-publica/estrutura-organizacional/,,"Alegre, ES, Brasil",,,,2008-12-29,2013-04-22T09:04:54
"Instituto Federal de Educação, Ciência e Tecnologia Farroupilha",IF FAR,br/instituto-federal-educacao-ciencia-tecnologia-farroupilha,instituto-federal-educacao-ciencia-tecnologia-farroupilha,,Ministério da Educação,br/ministerio-educacao,,,Brazil,BR,SIORG XML Extraction,http://repositorio.dados.gov.br/governo-politica/administracao-publica/estrutura-organizacional/,,"Alegrete, RS, Brasil",,,,2008-12-29,2013-04-22T09:04:54
"Instituto Federal de Educação, Ciência e Tecnologia Fluminense",IF FLUMINENSE,br/instituto-federal-educacao-ciencia-tecnologia-fluminense,instituto-federal-educacao-ciencia-tecnologia-fluminense,,Ministério da Educação,br/ministerio-educacao,,,Brazil,BR,SIORG XML Extraction,http://repositorio.dados.gov.br/governo-politica/administracao-publica/estrutura-organizacional/,,"Rua Doutor Siqueira, 273, Campos dos Goitacazes, RJ, Brasil",,,,2008-12-29,2013-04-22T09:04:54
"Instituto Federal de Educação, Ciência e Tecnologia Goiano",IF GOIANO,br/instituto-federal-educacao-ciencia-tecnologia-goiano,instituto-federal-educacao-ciencia-tecnologia-goiano,,Ministério da Educação,br/ministerio-educacao,,ifgoiano.edu.br,Brazil,BR,SIORG XML Extraction,http://repositorio.dados.gov.br/governo-politica/administracao-publica/estrutura-organizacional/,,"Rua 88, esquina com Rua 88 D - quadra F-37, lotes 32-34 e 36, Goiânia, GO, Brasil",,,,2008-12-29,2013-04-22T09:04:54
"Instituto Federal de Educação, Ciência e Tecnologia de Goiás",IF GO,br/instituto-federal-educacao-ciencia-tecnologia-goias,instituto-federal-educacao-ciencia-tecnologia-goias,,Ministério da Educação,br/ministerio-educacao,,http://www.etfgo.br/,Brazil,BR,SIORG XML Extraction,http://repositorio.dados.gov.br/governo-politica/administracao-publica/estrutura-organizacional/,,"Rua 75, n° 46, Centro, Goiânia, GO, Brasil",,,,2008-12-29,2013-04-22T09:04:54
"Instituto Federal de Educação, Ciência e Tecnologia do Maranhão",IF MA,br/instituto-federal-educacao-ciencia-tecnologia-maranhao,instituto-federal-educacao-ciencia-tecnologia-maranhao,,Ministério da Educação,br/ministerio-educacao,,http://www.ifma.edu.br/,Brazil,BR,SIORG XML Extraction,http://repositorio.dados.gov.br/governo-politica/administracao-publica/estrutura-organizacional/,,"Av. Getúlio Vargas, nº04, São Luís, MA, Brasil",,,,2008-12-29,2013-04-22T09:04:54
"Instituto Federal de Educação, Ciência e Tecnologia do Mato Grosso",IF MT,br/instituto-federal-educacao-ciencia-tecnologia-mato-grosso,instituto-federal-educacao-ciencia-tecnologia-mato-grosso,,Ministério da Educação,br/ministerio-educacao,,www.ifmt.edu.br,Brazil,BR,SIORG XML Extraction,http://repositorio.dados.gov.br/governo-politica/administracao-publica/estrutura-organizacional/,,"Rua Comandante Costa, 1144, sala 12, Ed. Tarcom, Cuiabá, MT, Brasil",,,,2008-12-29,2013-04-22T09:04:54
"Instituto Federal de Educação, Ciência e Tecnologia do Mato Grosso do Sul",IFMS,br/instituto-federal-educacao-ciencia-tecnologia-mato-grosso-sul,instituto-federal-educacao-ciencia-tecnologia-mato-grosso-sul,,Ministério da Educação,br/ministerio-educacao,,www.ifms.edu.br,Brazil,BR,SIORG XML Extraction,http://repositorio.dados.gov.br/governo-politica/administracao-publica/estrutura-organizacional/,,"Avenida Afonso Pena Nº 775, Campo Grande, MS, Brasil",,,,2008-12-29,2013-04-22T09:04:54
"Instituto Federal de Educação, Ciência e Tecnologia de Minas Gerais",IF MG,br/instituto-federal-educacao-ciencia-tecnologia-minas-gerais,instituto-federal-educacao-ciencia-tecnologia-minas-gerais,,Ministério da Educação,br/ministerio-educacao,,http://www.ifmg.edu.br/if,Brazil,BR,SIORG XML Extraction,http://repositorio.dados.gov.br/governo-politica/administracao-publica/estrutura-organizacional/,,"Av. Professor Mario Werneck, Nº 2590, Belo Horizonte, MG, Brasil",,,,2008-12-29,2013-04-22T09:04:54
"Instituto Federal de Educação, Ciência e Tecnologia do Norte de Minas Gerais",IF MG N,br/instituto-federal-educacao-ciencia-tecnologia-norte-minas-gerais,instituto-federal-educacao-ciencia-tecnologia-norte-minas-gerais,,Ministério da Educação,br/ministerio-educacao,,http://www.ifnmg.edu.br/,Brazil,BR,SIORG XML Extraction,http://repositorio.dados.gov.br/governo-politica/administracao-publica/estrutura-organizacional/,,"Rua Gabriel Passos 259, Montes Claros, MG, Brasil",,,,2008-12-29,2013-04-22T09:04:54
"Instituto Federal de Educação, Ciência e Tecnologia do Pará",IFPA,br/instituto-federal-educacao-ciencia-tecnologia-para,instituto-federal-educacao-ciencia-tecnologia-para,,Ministério da Educação,br/ministerio-educacao,,,Brazil,BR,SIORG XML Extraction,http://repositorio.dados.gov.br/governo-politica/administracao-publica/estrutura-organizacional/,,"Castanhal, PA, Brasil",,,,2008-12-29,2013-04-22T09:04:54
"Instituto Federal de Educação, Ciência e Tecnologia da Paraíba",IF PB,br/instituto-federal-educacao-ciencia-tecnologia-paraiba,instituto-federal-educacao-ciencia-tecnologia-paraiba,,Ministério da Educação,br/ministerio-educacao,,,Brazil,BR,SIORG XML Extraction,http://repositorio.dados.gov.br/governo-politica/administracao-publica/estrutura-organizacional/,,"Av. 1º de Maio, 720, João Pessoa, PB, Brasil",,,,2008-12-29,2013-04-22T09:04:54
"Instituto Federal de Educação, Ciência e Tecnologia do Paraná",IFPR,br/instituto-federal-educacao-ciencia-tecnologia-parana,instituto-federal-educacao-ciencia-tecnologia-parana,,Ministério da Educação,br/ministerio-educacao,,,Brazil,BR,SIORG XML Extraction,http://repositorio.dados.gov.br/governo-politica/administracao-publica/estrutura-organizacional/,,"Curitiba, PR, Brasil",,,,2008-12-29,2013-04-22T09:04:54
"Instituto Federal de Educação, Ciência e Tecnologia de Pernambuco",IF PE,br/instituto-federal-educacao-ciencia-tecnologia-pernambuco,instituto-federal-educacao-ciencia-tecnologia-pernambuco,,Ministério da Educação,br/ministerio-educacao,,,Brazil,BR,SIORG XML Extraction,http://repositorio.dados.gov.br/governo-politica/administracao-publica/estrutura-organizacional/,,"Barreiros, PE, Brasil",,,,2008-12-29,2013-04-22T09:04:54
"Instituto Federal de Educação, Ciência e Tecnologia do Piauí",IF PI,br/instituto-federal-educacao-ciencia-tecnologia-piaui,instituto-federal-educacao-ciencia-tecnologia-piaui,,Ministério da Educação,br/ministerio-educacao,,http://,Brazil,BR,SIORG XML Extraction,http://repositorio.dados.gov.br/governo-politica/administracao-publica/estrutura-organizacional/,,"Praça da Liberdade, 1597, Teresina, PI, Brasil",,,,2008-12-29,2013-04-22T09:04:54
"Instituto Federal de Educação, Ciência e Tecnologia do Rio Grande do Norte",IF RN,br/instituto-federal-educacao-ciencia-tecnologia-rio-grande-norte,instituto-federal-educacao-ciencia-tecnologia-rio-grande-norte,,Ministério da Educação,br/ministerio-educacao,,http://www.ifrn.edu.br/,Brazil,BR,SIORG XML Extraction,http://repositorio.dados.gov.br/governo-politica/administracao-publica/estrutura-organizacional/,,"Rua Dr. Nilo Bezerra Ramalho, nº 1692, Natal, RN, Brasil",,,,2008-12-29,2013-04-22T09:04:54
"Instituto Federal de Educação, Ciência e Tecnologia do Rio Grande do Sul",IF RS,br/instituto-federal-educacao-ciencia-tecnologia-rio-grande-sul,instituto-federal-educacao-ciencia-tecnologia-rio-grande-sul,,Ministério da Educação,br/ministerio-educacao,,http://www.ifrs.edu.br/site/,Brazil,BR,SIORG XML Extraction,http://repositorio.dados.gov.br/governo-politica/administracao-publica/estrutura-organizacional/,,"Rua Travessa Santo Antônio, 179, Bento Gonçalves, RS, Brasil",,,,2008-12-29,2013-04-22T09:04:54
"Instituto Federal de Educação, Ciência e Tecnologia do Rio de Janeiro",IF RJ,br/instituto-federal-educacao-ciencia-tecnologia-rio-janeiro,instituto-federal-educacao-ciencia-tecnologia-rio-janeiro,,Ministério da Educação,br/ministerio-educacao,,,Brazil,BR,SIORG XML Extraction,http://repositorio.dados.gov.br/governo-politica/administracao-publica/estrutura-organizacional/,,"Rua Senador Furtado 121, Rio de Janeiro, RJ, Brasil",,,,2008-12-29,2013-04-22T09:04:54
"Instituto Federal de Educação, Ciência e Tecnologia de Rondônia",IF RO,br/instituto-federal-educacao-ciencia-tecnologia-rondonia,instituto-federal-educacao-ciencia-tecnologia-rondonia,,Ministério da Educação,br/ministerio-educacao,,,Brazil,BR,SIORG XML Extraction,http://repositorio.dados.gov.br/governo-politica/administracao-publica/estrutura-organizacional/,,"Avenida Governador Jorge Teixeira 3146, Setor Industrial, Porto Velho, RO, Brasil",,,,2008-12-29,2013-04-22T09:04:54
"Instituto Federal de Educação, Ciência e Tecnologia de Roraima",IF RR,br/instituto-federal-educacao-ciencia-tecnologia-roraima,instituto-federal-educacao-ciencia-tecnologia-roraima,,Ministério da Educação,br/ministerio-educacao,,http://,Brazil,BR,SIORG XML Extraction,http://repositorio.dados.gov.br/governo-politica/administracao-publica/estrutura-organizacional/,,"Avenida Glycon de Paiva, Boa Vista, RR, Brasil",,,,2008-12-29,2013-04-22T09:04:54
"Instituto Federal de Educação, Ciência e Tecnologia de Santa Catarina",IF SC,br/instituto-federal-educacao-ciencia-tecnologia-santa-catarina,instituto-federal-educacao-ciencia-tecnologia-santa-catarina,,Ministério da Educação,br/ministerio-educacao,,ifsc.edu.br,Brazil,BR,SIORG XML Extraction,http://repositorio.dados.gov.br/governo-politica/administracao-publica/estrutura-organizacional/,,"Avenida Mauro Ramos 755, Florianópolis, SC, Brasil",,,,2008-12-29,2013-04-22T09:04:54
"Instituto Federal de Educação, Ciência e Tecnologia de São Paulo",IF SP,br/instituto-federal-educacao-ciencia-tecnologia-sao-paulo,instituto-federal-educacao-ciencia-tecnologia-sao-paulo,,Ministério da Educação,br/ministerio-educacao,,http://www.ifsp.edu.br,Brazil,BR,SIORG XML Extraction,http://repositorio.dados.gov.br/governo-politica/administracao-publica/estrutura-organizacional/,,"Rua Doutor Pedro Vicente, 625, São Paulo, SP, Brasil",,,,2008-12-29,2013-04-22T09:04:54
"Instituto Federal de Educação, Ciência e Tecnologia de Sergipe",IFS,br/instituto-federal-educacao-ciencia-tecnologia-sergipe,instituto-federal-educacao-ciencia-tecnologia-sergipe,,Ministério da Educação,br/ministerio-educacao,,,Brazil,BR,SIORG XML Extraction,http://repositorio.dados.gov.br/governo-politica/administracao-publica/estrutura-organizacional/,,"São Cristóvão, SE, Brasil",,,,2008-12-29,2013-04-22T09:04:54
"Instituto Federal de Educação, Ciência e Tecnologia do Sertão Pernambucano",IF SPE,br/instituto-federal-educacao-ciencia-tecnologia-sertao-pernambucano,instituto-federal-educacao-ciencia-tecnologia-sertao-pernambucano,,Ministério da Educação,br/ministerio-educacao,,,Brazil,BR,SIORG XML Extraction,http://repositorio.dados.gov.br/governo-politica/administracao-publica/estrutura-organizacional/,,"Petrolina, PE, Brasil",,,,2008-12-29,2013-04-22T09:04:54
"Instituto Federal de Educação, Ciência e Tecnologia do Sudeste de Minas Gerais",IFMGSE,br/instituto-federal-educacao-ciencia-tecnologia-sudeste-minas-gerais,instituto-federal-educacao-ciencia-tecnologia-sudeste-minas-gerais,,Ministério da Educação,br/ministerio-educacao,,,Brazil,BR,SIORG XML Extraction,http://repositorio.dados.gov.br/governo-politica/administracao-publica/estrutura-organizacional/,,"Rua Francisco Bernardino, nº 165, 6º Andar, sala 611, Juiz de Fora, MG, Brasil",,,,2008-12-29,2013-04-22T09:04:54
"Instituto Federal de Educação, Ciência e Tecnologia do Sul de Minas Gerais",IF MG S,br/instituto-federal-educacao-ciencia-tecnologia-sul-minas-gerais,instituto-federal-educacao-ciencia-tecnologia-sul-minas-gerais,,Ministério da Educação,br/ministerio-educacao,,,Brazil,BR,SIORG XML Extraction,http://repositorio.dados.gov.br/governo-politica/administracao-publica/estrutura-organizacional/,,"Inconfidentes, MG, Brasil",,,,2008-12-29,2013-04-22T09:04:54
"Instituto Federal de Educação, Ciência e Tecnologia  Sul-Rio-Grandense",IFSul,br/instituto-federal-educacao-ciencia-tecnologia-sul-rio-grandense,instituto-federal-educacao-ciencia-tecnologia-sul-rio-grandense,,Ministério da Educação,br/ministerio-educacao,,http://www.ifsul.edu.br/,Brazil,BR,SIORG XML Extraction,http://repositorio.dados.gov.br/governo-politica/administracao-publica/estrutura-organizacional/,,"Praça Vinte de Setembro, nº 455, Centro, Sala 126, Pelotas, RS, Brasil",,,,2008-12-29,2013-04-22T09:04:54
"Instituto Federal de Educação, Ciência e Tecnologia do Tocantins",IF TO,br/instituto-federal-educacao-ciencia-tecnologia-tocantins,instituto-federal-educacao-ciencia-tecnologia-tocantins,,Ministério da Educação,br/ministerio-educacao,,www.ifto.edu.br,Brazil,BR,SIORG XML Extraction,http://repositorio.dados.gov.br/governo-politica/administracao-publica/estrutura-organizacional/,,"Avenida Teotônio Segurado, s/n, Edifíco Carpe Diem, Lote 03, 7º andar sala 708, Palmas, TO, Brasil",,,,2008-12-29,2013-04-22T09:04:54
"Instituto Federal de Educação, Ciência e Tecnologia do Triângulo Mineiro",IF TM-Reitoria,br/instituto-federal-educacao-ciencia-tecnologia-triangulo-mineiro,instituto-federal-educacao-ciencia-tecnologia-triangulo-mineiro,,Ministério da Educação,br/ministerio-educacao,,,Brazil,BR,SIORG XML Extraction,http://repositorio.dados.gov.br/governo-politica/administracao-publica/estrutura-organizacional/,,"Rua Tupaciguara, Uberaba, Uberaba, MG, Brasil",,,,2008-12-29,2013-04-22T09:04:54
Instituto Nacional de Colonização e Reforma Agrária,INCRA,br/instituto-nacional-colonizacao-reforma-agraria,instituto-nacional-colonizacao-reforma-agraria,,Ministério do Desenvolvimento Agrário,br/ministerio-desenvolvimento-agrario,,http://www.incra.gov.br,Brazil,BR,SIORG XML Extraction,http://repositorio.dados.gov.br/governo-politica/administracao-publica/estrutura-organizacional/,,"SBN, Quadra 01 Bl. C Ed. Palácio do Desenvolvi-, mento 10º Andar, Brasília, DF, Brasil",,,,2009-04-03,2013-04-22T09:04:54
Instituto Nacional de Estudos e Pesquisas Educacionais Anísio Teixeira,INEP,br/instituto-nacional-estudos-pesquisas-educacionais-anisio-teixeira,instituto-nacional-estudos-pesquisas-educacionais-anisio-teixeira,,Ministério da Educação,br/ministerio-educacao,,http://www.inep.gov.br,Brazil,BR,SIORG XML Extraction,http://repositorio.dados.gov.br/governo-politica/administracao-publica/estrutura-organizacional/,,"Esplanada dos Ministérios, Bloco L, Anexos I e II 4º andar, Brasília, DF, Brasil",,,,2007-12-20,2013-04-22T09:04:54
"Instituto Nacional de Metrologia, Qualidade e Tecnologia",INMETRO,br/instituto-nacional-metrologia-qualidade-tecnologia,instituto-nacional-metrologia-qualidade-tecnologia,,"Ministério do Desenvolvimento, Indústria e Comércio Exterior",br/ministerio-desenvolvimento-industria-comercio-exterior,,http://www.inmetro.gov.br,Brazil,BR,SIORG XML Extraction,http://repositorio.dados.gov.br/governo-politica/administracao-publica/estrutura-organizacional/,,"Rua Santa Alexandrina, 416, 10º andar, Rio de Janeiro, RJ, Brasil",,,,2007-11-28,2013-04-22T09:04:54
Instituto Nacional da Propriedade Industrial,INPI,br/instituto-nacional-propriedade-industrial,instituto-nacional-propriedade-industrial,,"Ministério do Desenvolvimento, Indústria e Comércio Exterior",br/ministerio-desenvolvimento-industria-comercio-exterior,,http://www.inpi.gov.br,Brazil,BR,SIORG XML Extraction,http://repositorio.dados.gov.br/governo-politica/administracao-publica/estrutura-organizacional/,,"Praça Mauá, 7, 18 Andar, Centro, Rio de Janeiro, RJ, Brasil",,,,2004-07-21,2013-04-22T09:04:54
Instituto Nacional do Seguro Social,INSS,br/instituto-nacional-seguro-social,instituto-nacional-seguro-social,,Ministério da Previdência Social,br/ministerio-previdencia-social,,http://www.previdencia.gov.br,Brazil,BR,SIORG XML Extraction,http://repositorio.dados.gov.br/governo-politica/administracao-publica/estrutura-organizacional/,,"SBN Q. 02 Bl. E 14º andar Gabinete, Brasília, DF, Brasil",,,,2011-08-24,2013-04-22T09:04:54
Instituto Nacional de Tecnologia da Informação,ITI,br/instituto-nacional-tecnologia-informacao,instituto-nacional-tecnologia-informacao,,Casa Civil da Presidência da República,br/casa-civil-presidencia-republica,,http://www.iti.gov.br,Brazil,BR,SIORG XML Extraction,http://repositorio.dados.gov.br/governo-politica/administracao-publica/estrutura-organizacional/,,"SCN Quadra 04, Bloco B, Pétala D, sala 1102 Edifício Centro Empresarial Varig,  , Brasília, DF, Brasil",,,,2003-05-07,2013-04-22T09:04:54
Instituto do Patrimônio Histórico e Artístico Nacional,IPHAN,br/instituto-patrimonio-historico-artistico-nacional,instituto-patrimonio-historico-artistico-nacional,,Ministério da Cultura,br/ministerio-cultura,,http://www.iphan.gov.br,Brazil,BR,SIORG XML Extraction,http://repositorio.dados.gov.br/governo-politica/administracao-publica/estrutura-organizacional/,,"SBN, Quadra 02, Bloco F, Edifício Central Brasília, 6º andar, Brasília, DF, Brasil",,,,2009-05-07,2013-04-22T09:04:54
Instituto de Pesquisas Jardim Botânico do Rio de Janeiro,JBRJ,br/instituto-pesquisas-jardim-botanico-rio-janeiro,instituto-pesquisas-jardim-botanico-rio-janeiro,,Ministério do Meio Ambiente,br/ministerio-meio-ambiente,,http://www.jbrj.gov.br,Brazil,BR,SIORG XML Extraction,http://repositorio.dados.gov.br/governo-politica/administracao-publica/estrutura-organizacional/,,"Rua Pacheco Leão, 915, Rio de Janeiro, RJ, Brasil",,,,2001-12-06,2013-04-22T09:04:54
IRB-Brasil Resseguros S/A,IRB-Brasil Re,br/irb-brasil-resseguros-sa,irb-brasil-resseguros-sa,,Ministério da Fazenda,br/ministerio-fazenda,,http://www.irb-brasilre.com.br/mail_frame.htm,Brazil,BR,SIORG XML Extraction,http://repositorio.dados.gov.br/governo-politica/administracao-publica/estrutura-organizacional/,,"AV. MARECHAL CÂMARA, N 171, 8 ANDAR - CENTRO, Rio de Janeiro, RJ, Brasil",,,,2003-03-24,2013-04-22T09:04:54
"Ministério da Agricultura, Pecuária e Abastecimento",MAPA,br/ministerio-agricultura-pecuaria-abastecimento,ministerio-agricultura-pecuaria-abastecimento,,Presidência da República,br/presidencia-republica,,http://www.agricultura.gov.br/,Brazil,BR,SIORG XML Extraction,http://repositorio.dados.gov.br/governo-politica/administracao-publica/estrutura-organizacional/,,"Esplanada dos Ministérios, Bloco D, 8º Andar, Brasília, DF, Brasil",,,,2010-03-04,2013-04-22T09:04:54
Ministério das Cidades,MCIDADES,br/ministerio-cidades,ministerio-cidades,,Presidência da República,br/presidencia-republica,,www.cidades.gov.br,Brazil,BR,SIORG XML Extraction,http://repositorio.dados.gov.br/governo-politica/administracao-publica/estrutura-organizacional/,,"Quadra 01, Lote 01/06, Bloco H, Ed. Telemundi II , Brasília, DF, Brasil",,,,2003-04-03,2013-04-22T09:04:54
"Ministério da Ciência, Tecnologia e Inovação",MCTI,br/ministerio-ciencia-tecnologia-inovacao,ministerio-ciencia-tecnologia-inovacao,,Presidência da República,br/presidencia-republica,,http://www.mct.gov.br/,Brazil,BR,SIORG XML Extraction,http://repositorio.dados.gov.br/governo-politica/administracao-publica/estrutura-organizacional/,,"Esplanada dos Ministérios, Bloco E, 4º Andar, Brasília, DF, Brasil",,,,2006-09-06,2013-04-22T09:04:54
Ministério das Comunicações,MC,br/ministerio-comunicacoes,ministerio-comunicacoes,,Presidência da República,br/presidencia-republica,,http://www.mc.gov.br/,Brazil,BR,SIORG XML Extraction,http://repositorio.dados.gov.br/governo-politica/administracao-publica/estrutura-organizacional/,,"Esplanada dos Ministérios, Bloco R, 8º Andar sala 800, Brasília, DF, Brasil",,,,2011-04-19,2013-04-22T09:04:54
Ministério da Cultura,MinC,br/ministerio-cultura,ministerio-cultura,,Presidência da República,br/presidencia-republica,,http://www.cultura.gov.br/,Brazil,BR,SIORG XML Extraction,http://repositorio.dados.gov.br/governo-politica/administracao-publica/estrutura-organizacional/,,"Esplanada dos Ministérios, Bloco B, 4º andar, Brasília, DF, Brasil",,,,2009-04-30,2013-04-22T09:04:54
Ministério da Defesa,MD,br/ministerio-defesa,ministerio-defesa,,Presidência da República,br/presidencia-republica,,http://www.defesa.gov.br,Brazil,BR,SIORG XML Extraction,http://repositorio.dados.gov.br/governo-politica/administracao-publica/estrutura-organizacional/,,"Esplanada dos Ministérios, Bloco Q, 6 andar, Brasília, DF, Brasil",,,,2010-11-23,2013-04-22T09:04:54
Ministério do Desenvolvimento Agrário,MDA,br/ministerio-desenvolvimento-agrario,ministerio-desenvolvimento-agrario,,Presidência da República,br/presidencia-republica,,http://www.mda.gov.br,Brazil,BR,SIORG XML Extraction,http://repositorio.dados.gov.br/governo-politica/administracao-publica/estrutura-organizacional/,,"Esplanada dos Ministérios, Bloco A, Brasília, DF, Brasil",,,,2010-08-04,2013-04-22T09:04:54
"Ministério do Desenvolvimento, Indústria e Comércio Exterior",MDIC,br/ministerio-desenvolvimento-industria-comercio-exterior,ministerio-desenvolvimento-industria-comercio-exterior,,Presidência da República,br/presidencia-republica,,http://www.desenvolvimento.gov.br,Brazil,BR,SIORG XML Extraction,http://repositorio.dados.gov.br/governo-politica/administracao-publica/estrutura-organizacional/,,"Esplanada dos Ministérios, Bloco J, Brasília, DF, Brasil",,,,2010-02-04,2013-04-22T09:04:54
Ministério do Desenvolvimento Social e Combate à Fome,MDS,br/ministerio-desenvolvimento-social-combate-a-fome,ministerio-desenvolvimento-social-combate-a-fome,,Presidência da República,br/presidencia-republica,,http://www.mds.gov.br,Brazil,BR,SIORG XML Extraction,http://repositorio.dados.gov.br/governo-politica/administracao-publica/estrutura-organizacional/,,"Esplanada dos Ministérios,  Bloco C, Brasília, DF, Brasil",,,,2011-06-02,2013-04-22T09:04:54
Ministério da Educação,MEC,br/ministerio-educacao,ministerio-educacao,,Presidência da República,br/presidencia-republica,,http://www.mec.gov.br/,Brazil,BR,SIORG XML Extraction,http://repositorio.dados.gov.br/governo-politica/administracao-publica/estrutura-organizacional/,,"Esplanada dos Ministérios, Bloco L, 7º andar , Brasília, DF, Brasil",,,,2011-05-16,2013-04-22T09:04:54
Ministério do Esporte,ME,br/ministerio-esporte,ministerio-esporte,,Presidência da República,br/presidencia-republica,,http://www.esporte.gov.br,Brazil,BR,SIORG XML Extraction,http://repositorio.dados.gov.br/governo-politica/administracao-publica/estrutura-organizacional/,,"Esplanada dos Ministérios, Bloco A, Brasília, DF, Brasil",,,,2012-08-07,2013-04-22T09:04:54
Ministério da Fazenda,MF,br/ministerio-fazenda,ministerio-fazenda,,Presidência da República,br/presidencia-republica,,http://www.fazenda.gov.br,Brazil,BR,SIORG XML Extraction,http://repositorio.dados.gov.br/governo-politica/administracao-publica/estrutura-organizacional/,,"Esplanada dos Ministérios, Bloco P, 5º andar, Brasília, DF, Brasil",,,,2011-05-16,2013-04-22T09:04:54
Ministério da Integração Nacional,MI,br/ministerio-integracao-nacional,ministerio-integracao-nacional,,Presidência da República,br/presidencia-republica,,http://www.integracao.gov.br,Brazil,BR,SIORG XML Extraction,http://repositorio.dados.gov.br/governo-politica/administracao-publica/estrutura-organizacional/,,"Esplanada dos Ministérios, Bloco E, Brasília, DF, Brasil",,,,2011-05-04,2013-04-22T09:04:54
Ministério da Justiça,MJ,br/ministerio-justica,ministerio-justica,,Presidência da República,br/presidencia-republica,,http://www.mj.gov.br/,Brazil,BR,SIORG XML Extraction,http://repositorio.dados.gov.br/governo-politica/administracao-publica/estrutura-organizacional/,,"Esplanada dos Ministérios, Bloco T, 4º Andar, Brasília, DF, Brasil",,,,2007-03-15,2013-04-22T09:04:54
Ministério do Meio Ambiente,MMA,br/ministerio-meio-ambiente,ministerio-meio-ambiente,,Presidência da República,br/presidencia-republica,,http://www.mma.gov.br,Brazil,BR,SIORG XML Extraction,http://repositorio.dados.gov.br/governo-politica/administracao-publica/estrutura-organizacional/,,"Esplanada dos Ministérios, Bloco B, 5º Andar, Brasília, DF, Brasil",,,,2007-04-26,2013-04-22T09:04:54
Ministério de Minas e Energia,MME,br/ministerio-minas-energia,ministerio-minas-energia,,Presidência da República,br/presidencia-republica,,http://www.mme.gov.br,Brazil,BR,SIORG XML Extraction,http://repositorio.dados.gov.br/governo-politica/administracao-publica/estrutura-organizacional/,,"Esplanada dos Ministérios, Bloco U, Brasília, DF, Brasil",,,,2004-11-09,2013-04-22T09:04:54
Ministério da Pesca e Aquicultura,MPA,br/ministerio-pesca-aquicultura,ministerio-pesca-aquicultura,,Presidência da República,br/presidencia-republica,,http://www.presidencia.gov.br/seap ,Brazil,BR,SIORG XML Extraction,http://repositorio.dados.gov.br/governo-politica/administracao-publica/estrutura-organizacional/,,"Esplanada dos Ministérios, Bl. D. Ed. Sede, Brasília, DF, Brasil",,,,2009-09-29,2013-04-22T09:04:54
"Ministério do Planejamento, Orçamento e Gestão",MP,br/ministerio-planejamento-orcamento-gestao,ministerio-planejamento-orcamento-gestao,,Presidência da República,br/presidencia-republica,,http://www.planejamento.gov.br,Brazil,BR,SIORG XML Extraction,http://repositorio.dados.gov.br/governo-politica/administracao-publica/estrutura-organizacional/,,"Esplanada dos Ministérios, Bloco K, Brasília, DF, Brasil",,,,2010-01-13,2013-04-22T09:04:54
Ministério da Previdência Social,MPS,br/ministerio-previdencia-social,ministerio-previdencia-social,,Presidência da República,br/presidencia-republica,,http://www.mpas.gov.br/,Brazil,BR,SIORG XML Extraction,http://repositorio.dados.gov.br/governo-politica/administracao-publica/estrutura-organizacional/,,"Esplanada dos Ministérios, Bloco F, 8º Andar, Brasília, DF, Brasil",,,,2010-01-26,2013-04-22T09:04:54
Ministério das Relações Exteriores,MRE,br/ministerio-relacoes-exteriores,ministerio-relacoes-exteriores,,Presidência da República,br/presidencia-republica,,http://www.mre.gov.br/,Brazil,BR,SIORG XML Extraction,http://repositorio.dados.gov.br/governo-politica/administracao-publica/estrutura-organizacional/,,"Esplanada dos Ministérios - Bloco H, Brasília, DF, Brasil",,,,2010-09-22,2013-04-22T09:04:54
Ministério da Saúde,MS,br/ministerio-saude,ministerio-saude,,Presidência da República,br/presidencia-republica,,http://www.saude.gov.br/,Brazil,BR,SIORG XML Extraction,http://repositorio.dados.gov.br/governo-politica/administracao-publica/estrutura-organizacional/,,"Esplanada dos Ministérios, Bloco G, 5º Andar , Brasília, DF, Brasil",,,,2010-10-19,2013-04-22T09:04:54
Ministério do Trabalho e Emprego,MTE,br/ministerio-trabalho-emprego,ministerio-trabalho-emprego,,Presidência da República,br/presidencia-republica,,http://www.mte.gov.br/,Brazil,BR,SIORG XML Extraction,http://repositorio.dados.gov.br/governo-politica/administracao-publica/estrutura-organizacional/,,"Esplanada dos Ministérios, Bloco F, 5º Andar , Gabinete, Brasília, DF, Brasil",,,,2009-11-24,2013-04-22T09:04:54
Ministério dos Transportes,MT,br/ministerio-transportes,ministerio-transportes,,Presidência da República,br/presidencia-republica,,http://www.transportes.gov.br,Brazil,BR,SIORG XML Extraction,http://repositorio.dados.gov.br/governo-politica/administracao-publica/estrutura-organizacional/,,"Esplanada dos Ministérios, Bloco R, Brasília, DF, Brasil",,,,2003-06-05,2013-04-22T09:04:54
Ministério do Turismo,MTur,br/ministerio-turismo,ministerio-turismo,,Presidência da República,br/presidencia-republica,,www.turismo.gov.br,Brazil,BR,SIORG XML Extraction,http://repositorio.dados.gov.br/governo-politica/administracao-publica/estrutura-organizacional/,,"Esplanada dos Ministérios Bl. U - Gabinete 2º, Andar Ala Norte, Brasília, DF, Brasil",,,,2008-08-25,2013-04-22T09:04:54
Nuclebrás Equipamentos Pesados S/A,NUCLEP,br/nuclebras-equipamentos-pesados-sa,nuclebras-equipamentos-pesados-sa,,Comissão Nacional de Energia Nuclear,br/comissao-nacional-energia-nuclear,,http://www.nuclep.gov.br/,Brazil,BR,SIORG XML Extraction,http://repositorio.dados.gov.br/governo-politica/administracao-publica/estrutura-organizacional/,,"Av. Marechal Câmara, 160 - Sl. 833 - CASTELO, Rio de Janeiro, RJ, Brasil",,,,2003-05-12,2013-04-22T09:04:54
Petróleo Brasileiro S.A.,PETROBRAS,br/petroleo-brasileiro-sa,petroleo-brasileiro-sa,,Ministério de Minas e Energia,br/ministerio-minas-energia,,http://www.petrobras.com.br/,Brazil,BR,SIORG XML Extraction,http://repositorio.dados.gov.br/governo-politica/administracao-publica/estrutura-organizacional/,,"Avenida República do Chile Nº 65 , EDifício M.Adenar de Queiroz, 23ºAndar, Rio de Janeiro, RJ, Brasil",,,,2003-03-21,2013-04-22T09:04:54
Secretaria de Assuntos Estratégicos da Presidência da República,SAE/PR,br/secretaria-assuntos-estrategicos-presidencia-republica,secretaria-assuntos-estrategicos-presidencia-republica,,Presidência da República,br/presidencia-republica,,http://www.sae.gov.br/,Brazil,BR,SIORG XML Extraction,http://repositorio.dados.gov.br/governo-politica/administracao-publica/estrutura-organizacional/,,"Esplanada dos Ministérios Bloco O 8º Andar , Brasília, DF, Brasil",,,,2008-07-28,2013-04-22T09:04:54
Secretaria de Aviação Civil da Presidência da República,SAC,br/secretaria-aviacao-civil-presidencia-republica,secretaria-aviacao-civil-presidencia-republica,,Presidência da República,br/presidencia-republica,,http://www.aviacaocivil.gov.br/,Brazil,BR,SIORG XML Extraction,http://repositorio.dados.gov.br/governo-politica/administracao-publica/estrutura-organizacional/,,"Centro Cultural Banco do Brasil (CCBB), Setor de Clubes Sul, trecho 2, lote 22, Portaria 1, 1º Andar, Brasília, DF, Brasil",,,,2011-03-18,2013-04-22T09:04:54
Secretaria de Comunicação Social da Presidência da República,SECOM-PR,br/secretaria-comunicacao-social-presidencia-republica,secretaria-comunicacao-social-presidencia-republica,,Presidência da República,br/presidencia-republica,,,Brazil,BR,SIORG XML Extraction,http://repositorio.dados.gov.br/governo-politica/administracao-publica/estrutura-organizacional/,,"Palácio do Planalto, Praça dos Três Poderes, Brasília, DF, Brasil",,,,2008-02-19,2013-04-22T09:04:54
Secretaria de Direitos Humanos da Presidência da República,SDH,br/secretaria-direitos-humanos-presidencia-republica,secretaria-direitos-humanos-presidencia-republica,,Presidência da República,br/presidencia-republica,,https://www.presidencia.gov.br/sedh/,Brazil,BR,SIORG XML Extraction,http://repositorio.dados.gov.br/governo-politica/administracao-publica/estrutura-organizacional/,,"Esplanada dos Ministérios - Bloco T - Sala 420 - Edifício Sede do Ministério da Justiça, Brasília, DF, Brasil",,,,2010-08-04,2013-04-22T09:04:54
Secretaria-Geral da Presidência da República,SGPR,br/secretaria-geral-presidencia-republica,secretaria-geral-presidencia-republica,,Presidência da República,br/presidencia-republica,,http://www.presidencia.gov.br/SecGeral,Brazil,BR,SIORG XML Extraction,http://repositorio.dados.gov.br/governo-politica/administracao-publica/estrutura-organizacional/,,"Pça. dos Três Poderes, Palácio do Planalto , 4º Andar, Brasília, DF, Brasil",,,,2008-02-19,2013-04-22T09:04:54
Secretaria de Políticas para as Mulheres da Presidência da República,SPM,br/secretaria-politicas-mulheres-presidencia-republica,secretaria-politicas-mulheres-presidencia-republica,,Presidência da República,br/presidencia-republica,,http://www.presidencia.gov.br/spmulheres/fale/,Brazil,BR,SIORG XML Extraction,http://repositorio.dados.gov.br/governo-politica/administracao-publica/estrutura-organizacional/,,"Esplanada dos Ministérios Bloco L - Ed. Sede , 2º andar sala 200, Brasília, DF, Brasil",,,,2009-12-22,2013-04-22T09:04:54
Secretaria de Políticas de Promoção da Igualdade Racial da Presidência da República,SEPPIR,br/secretaria-politicas-promocao-igualdade-racial-presidencia-republica,secretaria-politicas-promocao-igualdade-racial-presidencia-republica,,Presidência da República,br/presidencia-republica,,https://www.presidencia.gov.br/seppir/,Brazil,BR,SIORG XML Extraction,http://repositorio.dados.gov.br/governo-politica/administracao-publica/estrutura-organizacional/,,"Esplanada dos Ministérios, Bloco A , 9º andar, Brasília, DF, Brasil",,,,2010-08-12,2013-04-22T09:04:54
Secretaria de Portos da Presidência da República,SEP,br/secretaria-portos-presidencia-republica,secretaria-portos-presidencia-republica,,Presidência da República,br/presidencia-republica,,,Brazil,BR,SIORG XML Extraction,http://repositorio.dados.gov.br/governo-politica/administracao-publica/estrutura-organizacional/,,"Brasília, DF, Brasil",,,,2010-08-12,2013-04-22T09:04:54
Secretaria de Relações Institucionais da Presidência da República,SRIPR,br/secretaria-relacoes-institucionais-presidencia-republica,secretaria-relacoes-institucionais-presidencia-republica,,Presidência da República,br/presidencia-republica,,http://www.planalto.gov.br,Brazil,BR,SIORG XML Extraction,http://repositorio.dados.gov.br/governo-politica/administracao-publica/estrutura-organizacional/,,"Praça dos Três Poderes, Palácio do Planalto, 4º Andar, Brasília, DF, Brasil",,,,2007-09-18,2013-04-22T09:04:54
Serviço Federal de Processamento de Dados,SERPRO,br/servico-federal-processamento-dados,servico-federal-processamento-dados,,Ministério da Fazenda,br/ministerio-fazenda,,http://www.serpro.gov.br/,Brazil,BR,SIORG XML Extraction,http://repositorio.dados.gov.br/governo-politica/administracao-publica/estrutura-organizacional/,,"SERPRO/Sede - SGAN 601- MODULO V, Brasília, DF, Brasil",,,,2003-03-24,2013-04-22T09:04:54
Superintendência do Desenvolvimento da Amazônia,SUDAM,br/superintendencia-desenvolvimento-amazonia,superintendencia-desenvolvimento-amazonia,,Ministério da Integração Nacional,br/ministerio-integracao-nacional,,www.mi.gov.br,Brazil,BR,SIORG XML Extraction,http://repositorio.dados.gov.br/governo-politica/administracao-publica/estrutura-organizacional/,,"Av. Almirante Barroso, 426, Belém, PA, Brasil",,,,2007-10-04,2013-04-22T09:04:54
Superintendência de Desenvolvimento do Centro-Oeste,SUDECO,br/superintendencia-desenvolvimento-centro-oeste,superintendencia-desenvolvimento-centro-oeste,,Ministério da Integração Nacional,br/ministerio-integracao-nacional,,www.mi.gov.br,Brazil,BR,SIORG XML Extraction,http://repositorio.dados.gov.br/governo-politica/administracao-publica/estrutura-organizacional/,,"Av. Almirante Barroso, 426, Brasil",,,,2009-01-08,2013-04-22T09:04:54
Superintendência do Desenvolvimento do Nordeste,SUDENE,br/superintendencia-desenvolvimento-nordeste,superintendencia-desenvolvimento-nordeste,,Ministério da Integração Nacional,br/ministerio-integracao-nacional,,www.sudene.gov.br- ,Brazil,BR,SIORG XML Extraction,http://repositorio.dados.gov.br/governo-politica/administracao-publica/estrutura-organizacional/,,"Praça Ministro João Gonçalves de Souza, s/n, Ed. Sudene, Engenho do Meio, Recife, PE, Brasil",,,,2007-10-04,2013-04-22T09:04:54
Superintendência Nacional de Previdência Complementar,PREVIC,br/superintendencia-nacional-previdencia-complementar,superintendencia-nacional-previdencia-complementar,,Ministério da Previdência Social,br/ministerio-previdencia-social,,,Brazil,BR,SIORG XML Extraction,http://repositorio.dados.gov.br/governo-politica/administracao-publica/estrutura-organizacional/,,", Brasil",,,,2010-01-16,2013-04-22T09:04:54
Superintendência de Seguros Privados,SUSEP,br/superintendencia-seguros-privados,superintendencia-seguros-privados,,Ministério da Fazenda,br/ministerio-fazenda,,http://www.susep.gov.br/faleconosco.asp,Brazil,BR,SIORG XML Extraction,http://repositorio.dados.gov.br/governo-politica/administracao-publica/estrutura-organizacional/,,"Rua Buenos Aires, 256, 4º andar, Rio de Janeiro, RJ, Brasil",,,,2009-12-23,2013-04-22T09:04:54
Superintendência da Zona Franca de Manaus,SUFRAMA,br/superintendencia-zona-franca-manaus,superintendencia-zona-franca-manaus,,"Ministério do Desenvolvimento, Indústria e Comércio Exterior",br/ministerio-desenvolvimento-industria-comercio-exterior,,http://www.suframa.gov.br,Brazil,BR,SIORG XML Extraction,http://repositorio.dados.gov.br/governo-politica/administracao-publica/estrutura-organizacional/,,"Av. Ministro João Gonçalves de Souza, s/n, Manaus, AM, Brasil",,,,2010-03-29,2013-04-22T09:04:54
Telecomunicações Brasileiras S.A.,TELEBRÁS,br/telecomunicacoes-brasileiras-sa,telecomunicacoes-brasileiras-sa,,Ministério das Comunicações,br/ministerio-comunicacoes,,http://www.telebras.gov.br,Brazil,BR,SIORG XML Extraction,http://repositorio.dados.gov.br/governo-politica/administracao-publica/estrutura-organizacional/,,"SCN - Quadra 04 - Bl B Sala 903  , Centro Empresarial, Brasília, DF, Brasil",,,,1972-07-11,2013-04-22T09:04:54
Universidade Federal de Alagoas,UFAL,br/universidade-federal-alagoas,universidade-federal-alagoas,,Ministério da Educação,br/ministerio-educacao,,http://www.ufal.br,Brazil,BR,SIORG XML Extraction,http://repositorio.dados.gov.br/governo-politica/administracao-publica/estrutura-organizacional/,,"Campus  A .C. Simões, BR 104, Km 14, Bloco 12, Maceió, AL, Brasil",,,,1961-01-25,2013-04-22T09:04:54
Universidade Federal de Alfenas,UNIFAL-MG,br/universidade-federal-alfenas,universidade-federal-alfenas,,Ministério da Educação,br/ministerio-educacao,,http://www.unifal-mg.edu.br/,Brazil,BR,SIORG XML Extraction,http://repositorio.dados.gov.br/governo-politica/administracao-publica/estrutura-organizacional/,,"Rua Gabriel Monteiro da Silva, 714, Centro, Alfenas, MG, Brasil",,,,1960-12-18,2013-04-22T09:04:54
Universidade Federal da Bahia,UFBA,br/universidade-federal-bahia,universidade-federal-bahia,,Ministério da Educação,br/ministerio-educacao,,http://www.ufba.br,Brazil,BR,SIORG XML Extraction,http://repositorio.dados.gov.br/governo-politica/administracao-publica/estrutura-organizacional/,,"Rua Augusto Viana, S/N, Palácio da Reitoria, Salvador, BA, Brasil",,,,1946-04-08,2013-04-22T09:04:54
Universidade Federal de Campina Grande,UFCG,br/universidade-federal-campina-grande,universidade-federal-campina-grande,,Ministério da Educação,br/ministerio-educacao,,http://www.ufcg.edu.br/principal.html,Brazil,BR,SIORG XML Extraction,http://repositorio.dados.gov.br/governo-politica/administracao-publica/estrutura-organizacional/,,"Setor de Administração Federal Sul, Lote 01 , Brasil",,,,2002-04-09,2013-04-22T09:04:54
Universidade Federal do Ceará,UFC,br/universidade-federal-ceara,universidade-federal-ceara,,Ministério da Educação,br/ministerio-educacao,,www.ufc.br,Brazil,BR,SIORG XML Extraction,http://repositorio.dados.gov.br/governo-politica/administracao-publica/estrutura-organizacional/,,"Avenida da Universidade, 2853 - Benfica, Fortaleza, CE, Brasil",,,,1954-12-16,2013-04-22T09:04:54
Universidade Federal do Espírito Santo,UFES,br/universidade-federal-espirito-santo,universidade-federal-espirito-santo,,Ministério da Educação,br/ministerio-educacao,,http://www.ufes.br/,Brazil,BR,SIORG XML Extraction,http://repositorio.dados.gov.br/governo-politica/administracao-publica/estrutura-organizacional/,,"Avenida Fernando Ferrari, S/n, Campus Universitári, Vitória, ES, Brasil",,,,1961-01-30,2013-04-22T09:04:54
Universidade Federal do Estado do Rio de Janeiro,UNIRIO,br/universidade-federal-estado-rio-janeiro,universidade-federal-estado-rio-janeiro,,Ministério da Educação,br/ministerio-educacao,,http://www.unirio.br/,Brazil,BR,SIORG XML Extraction,http://repositorio.dados.gov.br/governo-politica/administracao-publica/estrutura-organizacional/,,"Avenida Pasteur, 296, Rio de Janeiro, RJ, Brasil",,,,1979-06-05,2013-04-22T09:04:54
Universidade Federal Fluminense,UFF,br/universidade-federal-fluminense,universidade-federal-fluminense,,Ministério da Educação,br/ministerio-educacao,,http://www.uff.br,Brazil,BR,SIORG XML Extraction,http://repositorio.dados.gov.br/governo-politica/administracao-publica/estrutura-organizacional/,,"Rua Miguel de Frias, 9, 7 Andar, Niterói, RJ, Brasil",,,,1960-12-18,2013-04-22T09:04:54
Universidade Federal da Fronteira Sul,UFFS,br/universidade-federal-fronteira-sul,universidade-federal-fronteira-sul,,Ministério da Educação,br/ministerio-educacao,,,Brazil,BR,SIORG XML Extraction,http://repositorio.dados.gov.br/governo-politica/administracao-publica/estrutura-organizacional/,,"Chapecó, SC, Brasil",,,,2009-09-15,2013-04-22T09:04:54
Universidade Federal de Goiás,UFG,br/universidade-federal-goias,universidade-federal-goias,,Ministério da Educação,br/ministerio-educacao,,http://www.ufg.br,Brazil,BR,SIORG XML Extraction,http://repositorio.dados.gov.br/governo-politica/administracao-publica/estrutura-organizacional/,,"Rod. Goiânia - Nerópolis, km 12 Prédio da Reitoria, Goiânia, GO, Brasil",,,,1960-12-14,2013-04-22T09:04:54
Universidade Federal da Integração Latino-Americana,UNILA,br/universidade-federal-integracao-latino-americana,universidade-federal-integracao-latino-americana,,Ministério da Educação,br/ministerio-educacao,,http://www.unila.ufpr.br/,Brazil,BR,SIORG XML Extraction,http://repositorio.dados.gov.br/governo-politica/administracao-publica/estrutura-organizacional/,,"Av. Tancredo Neves, 6731, Bloco 4, Foz do Iguaçu, PR, Brasil",,,,2010-01-12,2013-04-22T09:04:54
Universidade Federal de Itajubá,UNIFEI,br/universidade-federal-itajuba,universidade-federal-itajuba,,Ministério da Educação,br/ministerio-educacao,,www.unifei.edu.br,Brazil,BR,SIORG XML Extraction,http://repositorio.dados.gov.br/governo-politica/administracao-publica/estrutura-organizacional/,,"Avenida BPS, 1303, Campus Prof. Jose Rodrigues Seabra, Caixa Postal 50, Itajubá, MG, Brasil",,,,1956-01-30,2013-04-22T09:04:54
Universidade Federal de Juiz de Fora,UFJF,br/universidade-federal-juiz-fora,universidade-federal-juiz-fora,,Ministério da Educação,br/ministerio-educacao,,http://www.ufjf.br,Brazil,BR,SIORG XML Extraction,http://repositorio.dados.gov.br/governo-politica/administracao-publica/estrutura-organizacional/,,"Rua Benjamin Constant, 790, Centro, Juiz de Fora, MG, Brasil",,,,1960-12-23,2013-04-22T09:04:54
Universidade Federal de Lavras,UFLA,br/universidade-federal-lavras,universidade-federal-lavras,,Ministério da Educação,br/ministerio-educacao,,http://www.ufla.br/,Brazil,BR,SIORG XML Extraction,http://repositorio.dados.gov.br/governo-politica/administracao-publica/estrutura-organizacional/,,"Campus Universitário, Pavilhão Central, Lavras, MG, Brasil",,,,1963-12-23,2013-04-22T09:04:54
Universidade Federal de Minas Gerais,UFMG,br/universidade-federal-minas-gerais,universidade-federal-minas-gerais,,Ministério da Educação,br/ministerio-educacao,,http://www.ufmg.br,Brazil,BR,SIORG XML Extraction,http://repositorio.dados.gov.br/governo-politica/administracao-publica/estrutura-organizacional/,,"Avenida Antonio Carlos , 6627 - Reitoria - Campus, Belo Horizonte, MG, Brasil",,,,1949-12-16,2013-04-22T09:04:54
Universidade Federal do Oeste do Pará,UFOPA,br/universidade-federal-oeste-para,universidade-federal-oeste-para,,Ministério da Educação,br/ministerio-educacao,,http://www. ufopa.edu.br,Brazil,BR,SIORG XML Extraction,http://repositorio.dados.gov.br/governo-politica/administracao-publica/estrutura-organizacional/,,"Rua Vera Paz, s/n , Santarém, PA, Brasil",,,,2009-11-05,2013-04-22T09:04:54
Universidade Federal do Pará,UFPA,br/universidade-federal-para,universidade-federal-para,,Ministério da Educação,br/ministerio-educacao,,http://www.ufpa.br,Brazil,BR,SIORG XML Extraction,http://repositorio.dados.gov.br/governo-politica/administracao-publica/estrutura-organizacional/,,"Rua Augusto Correa, s/n Prédio da Reitoria, Belém, PA, Brasil",,,,1957-07-02,2013-04-22T09:04:54
Universidade Federal da Paraíba,UFPB,br/universidade-federal-paraiba,universidade-federal-paraiba,,Ministério da Educação,br/ministerio-educacao,,http://www.ufpb.br/,Brazil,BR,SIORG XML Extraction,http://repositorio.dados.gov.br/governo-politica/administracao-publica/estrutura-organizacional/,,"Campus Universitário - Prédio da Reitoria, João Pessoa, PB, Brasil",,,,1960-12-13,2013-04-22T09:04:54
Universidade Federal do Paraná,UFPR,br/universidade-federal-parana,universidade-federal-parana,,Ministério da Educação,br/ministerio-educacao,,http://www.ufpr.br/,Brazil,BR,SIORG XML Extraction,http://repositorio.dados.gov.br/governo-politica/administracao-publica/estrutura-organizacional/,,"Rua XV de Novembro, 1299, Centro, Curitiba, PR, Brasil",,,,1912-12-19,2013-04-22T09:04:54
Universidade Federal de Pernambuco,UFPE,br/universidade-federal-pernambuco,universidade-federal-pernambuco,,Ministério da Educação,br/ministerio-educacao,,http:/www.ufpe.br,Brazil,BR,SIORG XML Extraction,http://repositorio.dados.gov.br/governo-politica/administracao-publica/estrutura-organizacional/,,"Avenida Professor Moraes Rego, 1235 Cidade Universitária, Recife, PE, Brasil",,,,1946-06-20,2013-04-22T09:04:54
Universidade Federal do Recôncavo da Bahia,UFRB,br/universidade-federal-reconcavo-bahia,universidade-federal-reconcavo-bahia,,Ministério da Educação,br/ministerio-educacao,,,Brazil,BR,SIORG XML Extraction,http://repositorio.dados.gov.br/governo-politica/administracao-publica/estrutura-organizacional/,,"Cruz das Almas, BA, Brasil",,,,2005-07-29,2013-04-22T09:04:54
Universidade Federal do Rio Grande do Norte,UFRN,br/universidade-federal-rio-grande-norte,universidade-federal-rio-grande-norte,,Ministério da Educação,br/ministerio-educacao,,http://www.ufrn.br/,Brazil,BR,SIORG XML Extraction,http://repositorio.dados.gov.br/governo-politica/administracao-publica/estrutura-organizacional/,,"Campus Universitário, Lagoa Nova, Natal, RN, Brasil",,,,1960-12-18,2013-04-22T09:04:54
Universidade Federal do Rio Grande do Sul,UFRGS,br/universidade-federal-rio-grande-sul,universidade-federal-rio-grande-sul,,Ministério da Educação,br/ministerio-educacao,,http://www.ufrgs.br/universidadeviva/,Brazil,BR,SIORG XML Extraction,http://repositorio.dados.gov.br/governo-politica/administracao-publica/estrutura-organizacional/,,"Avenida Paulo Gama, 110, 6º Andar, Porto Alegre, RS, Brasil",,,,1934-11-20,2013-04-22T09:04:54
Universidade Federal do Rio de Janeiro,UFRJ,br/universidade-federal-rio-janeiro,universidade-federal-rio-janeiro,,Ministério da Educação,br/ministerio-educacao,,http://www.ufrj.br,Brazil,BR,SIORG XML Extraction,http://repositorio.dados.gov.br/governo-politica/administracao-publica/estrutura-organizacional/,,"Cidade Universitária, Ilha do Fundão Ed. da Reitoria, Rio de Janeiro, RJ, Brasil",,,,1920-09-07,2013-04-22T09:04:54
Universidade Federal Rural da Amazônia,UFRA,br/universidade-federal-rural-amazonia,universidade-federal-rural-amazonia,,Ministério da Educação,br/ministerio-educacao,,http://www.ufra.edu.br/,Brazil,BR,SIORG XML Extraction,http://repositorio.dados.gov.br/governo-politica/administracao-publica/estrutura-organizacional/,,"Av. Presidente Tancredo Neves, nº2501, Belém, PA, Brasil",,,,2002-12-23,2013-04-22T09:04:54
Universidade Federal Rural de Pernambuco,UFRPE,br/universidade-federal-rural-pernambuco,universidade-federal-rural-pernambuco,,Ministério da Educação,br/ministerio-educacao,,http://www.ufrpe.br/,Brazil,BR,SIORG XML Extraction,http://repositorio.dados.gov.br/governo-politica/administracao-publica/estrutura-organizacional/,,"Rua Dom Manoel de Medeiros, S/n, Dois Irmãos, Recife, PE, Brasil",,,,1947-07-24,2013-04-22T09:04:54
Universidade Federal Rural do Rio de Janeiro,UFRRJ,br/universidade-federal-rural-rio-janeiro,universidade-federal-rural-rio-janeiro,,Ministério da Educação,br/ministerio-educacao,,http://www.ufrrj.br/,Brazil,BR,SIORG XML Extraction,http://repositorio.dados.gov.br/governo-politica/administracao-publica/estrutura-organizacional/,,"Antiga Rodovia Rio-São Br 465 - Km 47 - Seropédica, Rio de Janeiro, RJ, Brasil",,,,1943-12-30,2013-04-22T09:04:54
Universidade Federal Rural do Semi-Árido,UFERSA-RN,br/universidade-federal-rural-semi-arido,universidade-federal-rural-semi-arido,,Ministério da Educação,br/ministerio-educacao,,http://www.ufersa.edu.br,Brazil,BR,SIORG XML Extraction,http://repositorio.dados.gov.br/governo-politica/administracao-publica/estrutura-organizacional/,,"Rodovia BR 110, Km 47, Mossoró, RN, Brasil",,,,1969-10-21,2013-04-22T09:04:54
Universidade Federal de Santa Catarina,UFSC,br/universidade-federal-santa-catarina,universidade-federal-santa-catarina,,Ministério da Educação,br/ministerio-educacao,,http://www.ufsc.br/,Brazil,BR,SIORG XML Extraction,http://repositorio.dados.gov.br/governo-politica/administracao-publica/estrutura-organizacional/,,"Campus Universitário Reitor João David Ferreira Lima, Florianópolis, SC, Brasil",,,,1960-12-18,2013-04-22T09:04:54
Universidade Federal de Santa Maria,UFSM,br/universidade-federal-santa-maria,universidade-federal-santa-maria,,Ministério da Educação,br/ministerio-educacao,,http://www.ufsm.br,Brazil,BR,SIORG XML Extraction,http://repositorio.dados.gov.br/governo-politica/administracao-publica/estrutura-organizacional/,,"Faixa de Camobi, Km 9, Cidade Universitária Edifício Reitoria, Santa Maria, RS, Brasil",,,,1960-12-14,2013-04-22T09:04:54
Universidade Federal de São Paulo,UNIFESP,br/universidade-federal-sao-paulo,universidade-federal-sao-paulo,,Ministério da Educação,br/ministerio-educacao,,http://www.unifesp.br/,Brazil,BR,SIORG XML Extraction,http://repositorio.dados.gov.br/governo-politica/administracao-publica/estrutura-organizacional/,,"Rua Botucatu, 740, 5º andar, São Paulo, SP, Brasil",,,,1994-12-15,2013-04-22T09:04:54
Universidade Federal do Triângulo Mineiro,UFTM,br/universidade-federal-triangulo-mineiro,universidade-federal-triangulo-mineiro,,Ministério da Educação,br/ministerio-educacao,,http://,Brazil,BR,SIORG XML Extraction,http://repositorio.dados.gov.br/governo-politica/administracao-publica/estrutura-organizacional/,,"Rua Frei Paulino, 40, Uberaba, MG, Brasil",,,,1954-03-24,2013-04-22T09:04:54
Universidade Federal de Uberlândia,UFU,br/universidade-federal-uberlandia,universidade-federal-uberlandia,,Ministério da Educação,br/ministerio-educacao,,http://www.ufu.br,Brazil,BR,SIORG XML Extraction,http://repositorio.dados.gov.br/governo-politica/administracao-publica/estrutura-organizacional/,,"Avenida Engenheiro Diniz, 1178 - Reitoria, Uberlândia, MG, Brasil",,,,1969-08-14,2013-04-22T09:04:54
Universidade Federal dos Vales do Jequitinhonha e Mucuri,UFVJM,br/universidade-federal-vales-jequitinhonha-mucuri,universidade-federal-vales-jequitinhonha-mucuri,,Ministério da Educação,br/ministerio-educacao,,,Brazil,BR,SIORG XML Extraction,http://repositorio.dados.gov.br/governo-politica/administracao-publica/estrutura-organizacional/,,"Rua da Glória, 187, Centro, Diamantina, MG, Brasil",,,,2005-09-06,2013-04-22T09:04:54
Universidade da Integração Internacional da Lusofonia Afro-Brasileira,UNILAB,br/universidade-integracao-internacional-lusofonia-afro-brasileira,universidade-integracao-internacional-lusofonia-afro-brasileira,,Ministério da Educação,br/ministerio-educacao,,,Brazil,BR,SIORG XML Extraction,http://repositorio.dados.gov.br/governo-politica/administracao-publica/estrutura-organizacional/,,"Redenção, CE, Brasil",,,,2010-07-20,2013-04-22T09:04:54
Universidade Tecnológica Federal do Paraná,UTFPR,br/universidade-tecnologica-federal-parana,universidade-tecnologica-federal-parana,,Ministério da Educação,br/ministerio-educacao,,http://www.utfpr.edu.br/,Brazil,BR,SIORG XML Extraction,http://repositorio.dados.gov.br/governo-politica/administracao-publica/estrutura-organizacional/,,"Avenida 7 de Setembro, 3165, Curitiba, PR, Brasil",,,,1959-02-16,2013-04-22T09:04:54
"VALEC-Engenharia, Construções e Ferrovias S/A ",VALEC,br/valec-engenharia-construcoes-ferrovias-sa,valec-engenharia-construcoes-ferrovias-sa,,Ministério dos Transportes,br/ministerio-transportes,,www.valec.gov.br,Brazil,BR,SIORG XML Extraction,http://repositorio.dados.gov.br/governo-politica/administracao-publica/estrutura-organizacional/,,"Qd.01 Bl. F, 15º ao 20º andares - Edf. Palácio da Agricultura, SBN, Brasília, DF, Brasil",,,,2008-09-17,2013-04-22T09:04:54
Vice-Presidência da República,VPR,br/vice-presidencia-republica,vice-presidencia-republica,,Presidência da República,br/presidencia-republica,,,Brazil,BR,SIORG XML Extraction,http://repositorio.dados.gov.br/governo-politica/administracao-publica/estrutura-organizacional/,,"Palácio do Planalto, Anexo II Térreo, Brasília, DF, Brasil",,,,2003-02-26,2013-04-22T09:04:54
