title,abbr,key,category,parent,parent_key,description,url,jurisdiction,jurisdiction_code,source,source_url,address,contact,email,tags,created_at,updated_at
Department of Agriculture,USDA,us/department-of-agriculture,,,,,http://www.usda.gov/wps/portal/usda/usdahome,United States,US,,,,,,,,
Department of Defense (DOD),DOD,us/department-of-defense,,,,,http://www.defense.gov/,United States,US,,,"1400 Defense Pentagon, Washington, DC 20301-1400",,,,,
Department of Energy,DOE,us/department-of-energy,,,,,http://energy.gov/,United States,US,,,"1000 Independence Ave. SW, Washington DC 20585",,The.Secretary@hq.doe.gov,,,
Department of Housing and Urban Development,HUD,us/department-of-housing-and-urban-development,,,,,https://portal.hud.gov/hudportal/HUD,United States,US,,,"451 7th Street S.W., Washington, DC 20410",,,,,
Department of State,,us/department-of-state,,,,,http://www.state.gov/,United States,US,,,"2201 C Street NW, Washington, DC 20520",,,,,
The White House,,us/the-white-house,,,,,http://www.whitehouse.gov/,United States,US,,,,,,,,
AbilityOne Commission,,,,,,,,,,,,,,,,,
Access Board,,,,,,,,,,,,,,,,,
Administration for Children and Families (ACF),ACF,,,,,,,,,,,,,,,,
Administration for Native Americans,,,,,,,,,,,,,,,,,
Administration on Aging (AoA),AoA,,,,,,,,,,,,,,,,
Administration on Developmental Disabilities,,,,,,,,,,,,,,,,,
Administrative Committee of the Federal Register,,,,,,,,,,,,,,,,,
Administrative Conference of the United States,,,,,,,,,,,,,,,,,
Administrative Office of the U.S. Courts,,,,,,,,,,,,,,,,,
Advisory Council on Historic Preservation,,,,,,,,,,,,,,,,,
African Development Foundation,,,,,,,,,,,,,,,,,
Agency for Healthcare Research and Quality (AHRQ),AHRQ,,,,,,,,,,,,,,,,
Agency for International Development (USAID),USAID,,,,,,,,,,,,,,,,
Agency for Toxic Substances and Disease Registry,,,,,,,,,,,,,,,,,
Agricultural Marketing Service,,,,,,,,,,,,,,,,,
Agricultural Research Service,,,,,,,,,,,,,,,,,
Agriculture Department,,,,,,,,,,,,,,,,,
Air Force,,,,,,,,,,,,,,,,,
Alcohol and Tobacco Tax and Trade Bureau,,,,,,,,,,,,,,,,,
"Alcohol, Tobacco, Firearms, and Explosives Bureau",,,,,,,,,,,,,,,,,
American Battle Monuments Commission,,,,,,,,,,,,,,,,,
AmeriCorps,,,,,,,,,,,,,,,,,
Amtrak,,,,,,,,,,,,,,,,,
Animal and Plant Health Inspection Service,,,,,,,,,,,,,,,,,
Antitrust Division,,,,,,,,,,,,,,,,,
Appalachian Regional Commission,,,,,,,,,,,,,,,,,
Architect of the Capitol,,,,,,,,,,,,,,,,,
Archives (National Archives and Records Administration),,,,,,,,,,,,,,,,,
Arctic Research Commission,,,,,,,,,,,,,,,,,
Armed Forces Retirement Home,,,,,,,,,,,,,,,,,
Arms Control and International Security,,,,,,,,,,,,,,,,,
Army,,,,,,,,,,,,,,,,,
Army Corps of Engineers,,,,,,,,,,,,,,,,,
Arthritis and Musculoskeletal Interagency Coordinating Committee,,,,,,,,,,,,,,,,,
Bankruptcy Courts,,,,,,,,,,,,,,,,,
Barry M. Goldwater Scholarship and Excellence in Education Program,,,,,,,,,,,,,,,,,
Bonneville Power Administration,,,,,,,,,,,,,,,,,
Botanic Garden,,,,,,,,,,,,,,,,,
Broadcasting Board of Governors,,,,,,,,,,,,,,,,,
Bureau of Alcohol and Tobacco Tax and Trade,,,,,,,,,,,,,,,,,
"Bureau of Alcohol, Tobacco, Firearms, and Explosives",,,,,,,,,,,,,,,,,
Bureau of Citizenship and Immigration Services (USCIS),USCIS,,,,,,,,,,,,,,,,
Bureau of Consumer Financial Protection,,,,,,,,,,,,,,,,,
Bureau of Economic Analysis (BEA),BEA,,,,,,,,,,,,,,,,
Bureau of Engraving and Printing,,,,,,,,,,,,,,,,,
Bureau of Indian Affairs (BIA),BIA,,,,,,,,,,,,,,,,
Bureau of Industry and Security,,,,,,,,,,,,,,,,,
Bureau of International Labor Affairs,,,,,,,,,,,,,,,,,
Bureau of Justice Statistics,,,,,,,,,,,,,,,,,
Bureau of Labor Statistics,,,,,,,,,,,,,,,,,
Bureau of Land Management (BLM),BLM,,,,,,,,,,,,,,,,
Bureau of Prisons,,,,,,,,,,,,,,,,,
Bureau of Reclamation,,,,,,,,,,,,,,,,,
Bureau of the Census,,,,,,,,,,,,,,,,,
Bureau of the Public Debt,,,,,,,,,,,,,,,,,
Bureau of Transportation Statistics,,,,,,,,,,,,,,,,,
Capitol Police,,,,,,,,,,,,,,,,,
Capitol Visitor Center,,,,,,,,,,,,,,,,,
Census Bureau,,,,,,,,,,,,,,,,,
Center for Food Safety and Applied Nutrition,,,,,,,,,,,,,,,,,
Centers for Disease Control and Prevention (CDC),CDC,,,,,,,,,,,,,,,,
Centers for Medicare & Medicaid Services (CMS),CMS,,,,,,,,,,,,,,,,
Central Intelligence Agency (CIA),CIA,,,,,,,,,,,,,,,,
Chemical Safety and Hazard Investigation Board,,,,,,,,,,,,,,,,,
Chief Acquisition Officers Council,,,,,,,,,,,,,,,,,
Chief Financial Officers Council,,,,,,,,,,,,,,,,,
Chief Human Capital Officers Council,,,,,,,,,,,,,,,,,
Chief Information Officers Council,,,,,,,,,,,,,,,,,
Citizens' Stamp Advisory Committee,,,,,,,,,,,,,,,,,
Citizenship and Immigration Services (USCIS),USCIS,,,,,,,,,,,,,,,,
Coast Guard,,,,,,,,,,,,,,,,,
Commerce Department,,,,,,,,,,,,,,,,,
Commission of Fine Arts,,,,,,,,,,,,,,,,,
Commission on Civil Rights,,,,,,,,,,,,,,,,,
Commission on International Religious Freedom,,,,,,,,,,,,,,,,,
Commission on Security and Cooperation in Europe (Helsinki Commission),,,,,,,,,,,,,,,,,
Committee for the Implementation of Textile Agreements,,,,,,,,,,,,,,,,,
Committee on Foreign Investment in the United States,,,,,,,,,,,,,,,,,
Community Oriented Policing Services (COPS),COPS,,,,,,,,,,,,,,,,
Community Planning and Development,,,,,,,,,,,,,,,,,
"Compliance, Office of",,,,,,,,,,,,,,,,,
Computer Emergency Readiness Team (US CERT),US CERT,,,,,,,,,,,,,,,,
Congress—U.S. House of Representatives,,,,,,,,,,,,,,,,,
Congress—U.S. Senate,,,,,,,,,,,,,,,,,
Congressional Budget Office (CBO),CBO,,,,,,,,,,,,,,,,
Congressional Research Service,,,,,,,,,,,,,,,,,
Consumer Financial Protection Bureau,,,,,,,,,,,,,,,,,
Consumer Product Safety Commission (CPSC),CPSC,,,,,,,,,,,,,,,,
Coordinating Council on Juvenile Justice and Delinquency Prevention,,,,,,,,,,,,,,,,,
Copyright Office,,,,,,,,,,,,,,,,,
Corporation for National and Community Service,,,,,,,,,,,,,,,,,
Corps of Engineers,,,,,,,,,,,,,,,,,
Council of Economic Advisers,,,,,,,,,,,,,,,,,
Council on Environmental Quality,,,,,,,,,,,,,,,,,
Court of Appeals for the Armed Forces,,,,,,,,,,,,,,,,,
Court of Appeals for the Federal Circuit,,,,,,,,,,,,,,,,,
Court of Appeals for Veterans Claims,,,,,,,,,,,,,,,,,
Court of Federal Claims,,,,,,,,,,,,,,,,,
Court of International Trade,,,,,,,,,,,,,,,,,
Court Services and Offender Supervision Agency for the District of Columbia,,,,,,,,,,,,,,,,,
Customs and Border Protection,,,,,,,,,,,,,,,,,
Defense Acquisition University,,,,,,,,,,,,,,,,,
Defense Advanced Research Projects Agency (DARPA),DARPA,,,,,,,,,,,,,,,,
Defense Commissary Agency,,,,,,,,,,,,,,,,,
Defense Contract Audit Agency (DCAA),DCAA,,,,,,,,,,,,,,,,
Defense Contract Management Agency,,,,,,,,,,,,,,,,,
Defense Field Activities,,,,,,,,,,,,,,,,,
Defense Finance and Accounting Services (DFAS),DFAS,,,,,,,,,,,,,,,,
Defense Information Systems Agency (DISA),DISA,,,,,,,,,,,,,,,,
Defense Intelligence Agency (DIA),DIA,,,,,,,,,,,,,,,,
Defense Legal Services Agency,,,,,,,,,,,,,,,,,
Defense Logistics Agency (DLA),DLA,,,,,,,,,,,,,,,,
Defense Nuclear Facilities Safety Board,,,,,,,,,,,,,,,,,
Defense Security Cooperation Agency (DSCA),DSCA,,,,,,,,,,,,,,,,
Defense Security Service (DSS),DSS,,,,,,,,,,,,,,,,
Defense Technical Information Center,,,,,,,,,,,,,,,,,
Defense Threat Reduction Agency (DTRA),DTRA,,,,,,,,,,,,,,,,
Delaware River Basin Commission,,,,,,,,,,,,,,,,,
Denali Commission,,,,,,,,,,,,,,,,,
Department of Agriculture,,,,,,,,,,,,,,,,,
Department of Defense Inspector General,,,,,,,,,,,,,,,,,
Department of Education (ED),ED,,,,,,,,,,,,,,,,
Department of Energy (DOE),DOE,,,,,,,,,,,,,,,,
Department of Health and Human Services,,,,,,,,,,,,,,,,,
Department of Homeland Security (DHS),DHS,,,,,,,,,,,,,,,,
Department of Housing and Urban Development (HUD),HUD,,,,,,,,,,,,,,,,
Department of Justice (DOJ),DOJ,,,,,,,,,,,,,,,,
Department of Labor (DOL),DOL,,,,,,,,,,,,,,,,
Department of State (DOS),DOS,,,,,,,,,,,,,,,,
Department of the Interior (DOI),DOI,,,,,,,,,,,,,,,,
Department of the Treasury,,,,,,,,,,,,,,,,,
Department of Transportation (DOT),DOT,,,,,,,,,,,,,,,,
Department of Veterans Affairs (VA),VA,,,,,,,,,,,,,,,,
"Director of National Intelligence, Office of",,,,,,,,,,,,,,,,,
Domestic Policy Council,,,,,,,,,,,,,,,,,
Drug Enforcement Administration,,,,,,,,,,,,,,,,,
Dwight D. Eisenhower School for National Security and Resource Strategy,,,,,,,,,,,,,,,,,
Economic Adjustment Office,,,,,,,,,,,,,,,,,
"Economic Analysis, Bureau of",,,,,,,,,,,,,,,,,
Economic Development Administration (EDA),EDA,,,,,,,,,,,,,,,,
Economic Research Service,,,,,,,,,,,,,,,,,
"Economic, Business and Agricultural Affairs",,,,,,,,,,,,,,,,,
Economics and Statistics Administration,,,,,,,,,,,,,,,,,
Education Department,,,,,,,,,,,,,,,,,
Education Resources Information Center (ERIC),ERIC,,,,,,,,,,,,,,,,
Election Assistance Commission,,,,,,,,,,,,,,,,,
"Elementary and Secondary Education, Office of",,,,,,,,,,,,,,,,,
Employee Benefits Security Administration (EBSA),EBSA,,,,,,,,,,,,,,,,
Employment and Training Administration,,,,,,,,,,,,,,,,,
Endangered Species Program,,,,,,,,,,,,,,,,,
Energy Department,DOE,,,,,,,,,,,,,,,,
Energy Information Administration,,,,,,,,,,,,,,,,,
English Language Acquisition Office,,,,,,,,,,,,,,,,,
"Engraving and Printing, Bureau of",,,,,,,,,,,,,,,,,
Environmental Management (Energy Department),,,,,,,,,,,,,,,,,
Environmental Protection Agency (EPA),EPA,,,,,,,,,,,,,,,,
Equal Employment Opportunity Commission (EEOC),EEOC,,,,,,,,,,,,,,,,
European Command,,,,,,,,,,,,,,,,,
Executive Office for Immigration Review,,,,,,,,,,,,,,,,,
Export-Import Bank of the United States,,,,,,,,,,,,,,,,,
Fair Housing and Equal Opportunity (FHEO),FHEO,,,,,,,,,,,,,,,,
Federal National Mortgage Association (Fannie Mae),,,,,,,,,,,,,,,,,
Farm Credit Administration,,,,,,,,,,,,,,,,,
Farm Credit System Insurance Corporation,,,,,,,,,,,,,,,,,
Farm Service Agency,,,,,,,,,,,,,,,,,
Federal Accounting Standards Advisory Board,,,,,,,,,,,,,,,,,
Federal Aviation Administration (FAA),FBI,,,,,,,,,,,,,,,,
Federal Bureau of Investigation (FBI),,,,,,,,,,,,,,,,,
Federal Bureau of Prisons,,,,,,,,,,,,,,,,,
Federal Communications Commission (FCC),FCC,,,,,,,,,,,,,,,,
Federal Consulting Group,,,,,,,,,,,,,,,,,
Federal Deposit Insurance Corporation (FDIC),FDIC,,,,,,,,,,,,,,,,
Federal Election Commission,,,,,,,,,,,,,,,,,
Federal Emergency Management Agency (FEMA),FEMA,,,,,,,,,,,,,,,,
Federal Energy Regulatory Commission,,,,,,,,,,,,,,,,,
Federal Executive Boards,,,,,,,,,,,,,,,,,
Federal Financial Institutions Examination Council,,,,,,,,,,,,,,,,,
Federal Financing Bank,,,,,,,,,,,,,,,,,
Federal Geographic Data Committee,,,,,,,,,,,,,,,,,
Federal Highway Administration,,,,,,,,,,,,,,,,,
Federal Home Loan Mortgage Corporation (Freddie Mac),,,,,,,,,,,,,,,,,
Federal Housing Finance Agency,,,,,,,,,,,,,,,,,
Federal Interagency Committee for the Management of Noxious and Exotic Weeds,,,,,,,,,,,,,,,,,
Federal Interagency Committee on Education,,,,,,,,,,,,,,,,,
Federal Interagency Council on Statistical Policy,,,,,,,,,,,,,,,,,
Federal Judicial Center,,,,,,,,,,,,,,,,,
Federal Labor Relations Authority,,,,,,,,,,,,,,,,,
Federal Laboratory Consortium for Technology Transfer,,,,,,,,,,,,,,,,,
Federal Law Enforcement Training Center,,,,,,,,,,,,,,,,,
Federal Library and Information Center Committee,,,,,,,,,,,,,,,,,
Federal Maritime Commission,,,,,,,,,,,,,,,,,
Federal Mediation and Conciliation Service,,,,,,,,,,,,,,,,,
Federal Mine Safety and Health Review Commission,,,,,,,,,,,,,,,,,
Federal Motor Carrier Safety Administration (FMCSA),FMCSA,,,,,,,,,,,,,,,,
Federal Railroad Administration,,,,,,,,,,,,,,,,,
Federal Reserve System,,,,,,,,,,,,,,,,,
Federal Retirement Thrift Investment Board,,,,,,,,,,,,,,,,,
Federal Student Aid Information Center,,,,,,,,,,,,,,,,,
Federal Trade Commission (FTC),FTC,,,,,,,,,,,,,,,,
Federal Transit Administration,,,,,,,,,,,,,,,,,
Federal Voting Assistance Program,,,,,,,,,,,,,,,,,
Financial Management Service (Treasury Department),,,,,,,,,,,,,,,,,
Fish and Wildlife Service,,,,,,,,,,,,,,,,,
Food and Drug Administration (FDA),FDA,,,,,,,,,,,,,,,,
Food Safety and Inspection Service,,,,,,,,,,,,,,,,,
Foreign Agricultural Service,,,,,,,,,,,,,,,,,
Foreign Claims Settlement Commission,,,,,,,,,,,,,,,,,
Forest Service,,,,,,,,,,,,,,,,,
Fossil Energy,,,,,,,,,,,,,,,,,
Fulbright Foreign Scholarship Board,,,,,,,,,,,,,,,,,
General Services Administration (GSA),GSA,,,,,,,,,,,,,,,,
Geological Survey,,,,,,,,,,,,,,,,,
Global Affairs (State Department),,,,,,,,,,,,,,,,,
Government Accountability Office (GAO),GAO,,,,,,,,,,,,,,,,
"Government Ethics, Office of",,,,,,,,,,,,,,,,,
Government National Mortgage Association,,,,,,,,,,,,,,,,,
Government Printing Office (GPO),GPO,,,,,,,,,,,,,,,,
"Grain Inspection, Packers and Stockyards Administration",,,,,,,,,,,,,,,,,
Harry S. Truman Scholarship Foundation,,,,,,,,,,,,,,,,,
Health and Human Services Department,,,,,,,,,,,,,,,,,
Health Resources and Services Administration,,,,,,,,,,,,,,,,,
Healthy Homes and Lead Hazard Control Office,,,,,,,,,,,,,,,,,
Helsinki Commission,,,,,,,,,,,,,,,,,
Holocaust Memorial Museum,,,,,,,,,,,,,,,,,
Homeland Security Department,,,,,,,,,,,,,,,,,
House Leadership Offices,,,,,,,,,,,,,,,,,
House of Representatives,,,,,,,,,,,,,,,,,
House of Representatives Committees,,,,,,,,,,,,,,,,,
House Office of Inspector General,,,,,,,,,,,,,,,,,
House Office of the Clerk,,,,,,,,,,,,,,,,,
House Officers and Organizations,,,,,,,,,,,,,,,,,
Housing Office (HUD),HUD,,,,,,,,,,,,,,,,
Immigration and Customs Enforcement,,,,,,,,,,,,,,,,,
Indian Affairs,,,,,,,,,,,,,,,,,
Indian Arts and Crafts Board,,,,,,,,,,,,,,,,,
Indian Health Service,,,,,,,,,,,,,,,,,
Industrial College of the Armed Forces,,,,,,,,,,,,,,,,,
"Industry and Security, Bureau of",,,,,,,,,,,,,,,,,
Information Resource Management College,,,,,,,,,,,,,,,,,
Information Resources Center,,,,,,,,,,,,,,,,,
Innovation and Improvement Office,,,,,,,,,,,,,,,,,
Inspectors General,,,,,,,,,,,,,,,,,
Institute of Education Sciences,,,,,,,,,,,,,,,,,
Institute of Museum and Library Services,,,,,,,,,,,,,,,,,
Institute of Peace,,,,,,,,,,,,,,,,,
Inter-American Foundation,,,,,,,,,,,,,,,,,
Interagency Alternative Dispute Resolution Working Group,,,,,,,,,,,,,,,,,
Interagency Council on Homelessness,,,,,,,,,,,,,,,,,
Interior Department,,,,,,,,,,,,,,,,,
Internal Revenue Service (IRS),,,,,,,,,,,,,,,,,
"International Labor Affairs, Bureau of",,,,,,,,,,,,,,,,,
International Trade Administration (ITA),,,,,,,,,,,,,,,,,
International Trade Commission,,,,,,,,,,,,,,,,,
Interpol,,,,,,,,,,,,,,,,,
James Madison Memorial Fellowship Foundation,,,,,,,,,,,,,,,,,
Japan-United States Friendship Commission,,,,,,,,,,,,,,,,,
Job Corps,,,,,,,,,,,,,,,,,
John F. Kennedy Center for the Performing Arts,,,,,,,,,,,,,,,,,
Joint Board for the Enrollment of Actuaries,,,,,,,,,,,,,,,,,
Joint Chiefs of Staff,,,,,,,,,,,,,,,,,
Joint Congressional Committee on Inaugural Ceremonies,,,,,,,,,,,,,,,,,
Joint Fire Science Program,,,,,,,,,,,,,,,,,
Joint Forces Command,,,,,,,,,,,,,,,,,
Joint Forces Staff College,,,,,,,,,,,,,,,,,
Joint Military Intelligence College,,,,,,,,,,,,,,,,,
Judicial Circuit Courts of Appeal,,,,,,,,,,,,,,,,,
Judicial Panel on Multidistrict Litigation,,,,,,,,,,,,,,,,,
Justice Department,,,,,,,,,,,,,,,,,
"Justice Programs, Office of",,,,,,,,,,,,,,,,,
"Justice Statistics, Bureau of",,,,,,,,,,,,,,,,,
"Justice Statistics, Bureau of",,,,,,,,,,,,,,,,,
"Juvenile Justice and Delinquency Prevention, Office of",,,,,,,,,,,,,,,,,
Labor Department (DOL),,,,,,,,,,,,,,,,,
"Labor Statistics, Bureau of",,,,,,,,,,,,,,,,,
"Land Management, Bureau of",,,,,,,,,,,,,,,,,
Legal Services Corporation,,,,,,,,,,,,,,,,,
Library of Congress,,,,,,,,,,,,,,,,,
Marine Corps,,,,,,,,,,,,,,,,,
Marine Mammal Commission,,,,,,,,,,,,,,,,,
Maritime Administration,,,,,,,,,,,,,,,,,
Marketing and Regulatory Programs (Agriculture Department),,,,,,,,,,,,,,,,,
Marshals Service,,,,,,,,,,,,,,,,,
Mediation and Conciliation Service,,,,,,,,,,,,,,,,,
Medicaid and CHIP Payment and Access Commission,,,,,,,,,,,,,,,,,
Medicare Payment Advisory Commission,,,,,,,,,,,,,,,,,
Merit Systems Protection Board,,,,,,,,,,,,,,,,,
Migratory Bird Conservation Commission,,,,,,,,,,,,,,,,,
Military Postal Service Agency,,,,,,,,,,,,,,,,,
Millennium Challenge Corporation,,,,,,,,,,,,,,,,,
Mine Safety and Health Administration,,,,,,,,,,,,,,,,,
Minority Business Development Agency,,,,,,,,,,,,,,,,,
Mint,,,,,,,,,,,,,,,,,
Missile Defense Agency (MDA),,,,,,,,,,,,,,,,,
Mississippi River Commission,,,,,,,,,,,,,,,,,
Morris K. Udall and Stewart L. Udall Foundation,,,,,,,,,,,,,,,,,
Multifamily Housing Office,,,,,,,,,,,,,,,,,
National Aeronautics and Space Administration (NASA),,,,,,,,,,,,,,,,,
National Agricultural Statistics Service,,,,,,,,,,,,,,,,,
National AIDS Policy Office,,,,,,,,,,,,,,,,,
National Archives and Records Administration (NARA),,,,,,,,,,,,,,,,,
National Bipartisan Commission on the Future of Medicare,,,,,,,,,,,,,,,,,
National Capital Planning Commission,,,,,,,,,,,,,,,,,
National Cemetery Administration (NCA),,,,,,,,,,,,,,,,,
National Commission on Fiscal Responsibility and Reform,,,,,,,,,,,,,,,,,
National Constitution Center,,,,,,,,,,,,,,,,,
National Council on Disability (NCD),,,,,,,,,,,,,,,,,
"National Counterintelligence Executive, Office of",,,,,,,,,,,,,,,,,
National Credit Union Administration,,,,,,,,,,,,,,,,,
National Defense University,,,,,,,,,,,,,,,,,
National Defense University iCollege,,,,,,,,,,,,,,,,,
National Drug Intelligence Center,,,,,,,,,,,,,,,,,
National Economic Council,,,,,,,,,,,,,,,,,
National Endowment for the Arts,,,,,,,,,,,,,,,,,
National Endowment for the Humanities,,,,,,,,,,,,,,,,,
National Flood Insurance Program (NFIP),,,,,,,,,,,,,,,,,
National Gallery of Art,,,,,,,,,,,,,,,,,
National Geospatial-Intelligence Agency,,,,,,,,,,,,,,,,,
National Guard,,,,,,,,,,,,,,,,,
National Highway Traffic Safety Administration (NHTSA),,,,,,,,,,,,,,,,,
National Indian Gaming Commission,,,,,,,,,,,,,,,,,
National Institute of Food and Agriculture,,,,,,,,,,,,,,,,,
National Institute of Justice,,,,,,,,,,,,,,,,,
National Institute of Standards and Technology (NIST),,,,,,,,,,,,,,,,,
National Institutes of Health (NIH),,,,,,,,,,,,,,,,,
National Intelligence University,,,,,,,,,,,,,,,,,
National Interagency Fire Center,,,,,,,,,,,,,,,,,
National Labor Relations Board,,,,,,,,,,,,,,,,,
National Laboratories (Energy Department),,,,,,,,,,,,,,,,,
National Marine Fisheries Service,,,,,,,,,,,,,,,,,
National Mediation Board,,,,,,,,,,,,,,,,,
National Nuclear Security Administration,,,,,,,,,,,,,,,,,
National Ocean Service,,,,,,,,,,,,,,,,,
National Oceanic and Atmospheric Administration (NOAA),,,,,,,,,,,,,,,,,
National Park Foundation,,,,,,,,,,,,,,,,,
National Park Service,,,,,,,,,,,,,,,,,
National Railroad Passenger Corporation (AMTRAK),,,,,,,,,,,,,,,,,
National Reconnaissance Office,,,,,,,,,,,,,,,,,
National Science Foundation,,,,,,,,,,,,,,,,,
National Security Agency (NSA),,,,,,,,,,,,,,,,,
National Security Council,,,,,,,,,,,,,,,,,
National Technical Information Service,,,,,,,,,,,,,,,,,
National Telecommunications and Information Administration,,,,,,,,,,,,,,,,,
National Transportation Safety Board,,,,,,,,,,,,,,,,,
National War College,,,,,,,,,,,,,,,,,
National Weather Service (NOAA),,,,,,,,,,,,,,,,,
Natural Resources Conservation Service,,,,,,,,,,,,,,,,,
Navy,,,,,,,,,,,,,,,,,
Northern Command,,,,,,,,,,,,,,,,,
Northwest Power and Conservation Council,,,,,,,,,,,,,,,,,
"Nuclear Energy, Science and Technology",,,,,,,,,,,,,,,,,
Nuclear Regulatory Commission,,,,,,,,,,,,,,,,,
Nuclear Waste Technical Review Board,,,,,,,,,,,,,,,,,
Oak Ridge National Laboratory,,,,,,,,,,,,,,,,,
Occupational Safety and Health Review Commission,,,,,,,,,,,,,,,,,
"Office for Civil Rights, Department of Education",,,,,,,,,,,,,,,,,
Office of Community Planning and Development,,,,,,,,,,,,,,,,,
Office of Compliance,,,,,,,,,,,,,,,,,
Office of Disability Employment Policy,,,,,,,,,,,,,,,,,
Office of Elementary and Secondary Education (OESE),,,,,,,,,,,,,,,,,
Office of Fossil Energy,,,,,,,,,,,,,,,,,
Office of Government Ethics,,,,,,,,,,,,,,,,,
Office of Justice Programs,,,,,,,,,,,,,,,,,
Office of Juvenile Justice and Delinquency Prevention,,,,,,,,,,,,,,,,,
Office of Management and Budget (OMB),,,,,,,,,,,,,,,,,
Office of National Drug Control Policy (ONDCP),,,,,,,,,,,,,,,,,
Office of Nuclear Energy (Department of Energy),,,,,,,,,,,,,,,,,
Office of Personnel Management (OPM),,,,,,,,,,,,,,,,,
Office of Refugee Resettlement,,,,,,,,,,,,,,,,,
Office of Science and Technology Policy,,,,,,,,,,,,,,,,,
Office of Scientific and Technical Information,,,,,,,,,,,,,,,,,
Office of Special Counsel,,,,,,,,,,,,,,,,,
Office of Special Education and Rehabilitative Services (OSERS),,,,,,,,,,,,,,,,,
Office of the Comptroller of the Currency (OCC),,,,,,,,,,,,,,,,,
Office of the Director of National Intelligence,,,,,,,,,,,,,,,,,
Office of the Pardon Attorney,,,,,,,,,,,,,,,,,
Open World Leadership Center,,,,,,,,,,,,,,,,,
Overseas Private Investment Corporation,,,,,,,,,,,,,,,,,
Pacific Command,,,,,,,,,,,,,,,,,
Pacific Northwest Electric Power and Conservation Planning Council,,,,,,,,,,,,,,,,,
"Pardon Attorney, Office of",,,,,,,,,,,,,,,,,
Parole Commission (Justice Department),,,,,,,,,,,,,,,,,
Peace Corps,,,,,,,,,,,,,,,,,
Pension Benefit Guaranty Corporation (PBGC),PBGC,,,,,,,,,,,,,,,,
Pentagon Force Protection Agency,,,,,,,,,,,,,,,,,
Pipeline and Hazardous Materials Safety Administration,,,,,,,,,,,,,,,,,
Policy Development and Research (HUD),,,,,,,,,,,,,,,,,
Political Affairs (State Department),,,,,,,,,,,,,,,,,
Postal Regulatory Commission,,,,,,,,,,,,,,,,,
Postal Service,,,,,,,,,,,,,,,,,
Power Administrations,,,,,,,,,,,,,,,,,
President's Council on Physical Fitness and Sports,,,,,,,,,,,,,,,,,
Presidio Trust,,,,,,,,,,,,,,,,,
Prisoner of War/Missing Personnel Office,,,,,,,,,,,,,,,,,
Public and Indian Housing,,,,,,,,,,,,,,,,,
Public Diplomacy and Public Affairs (State Department),,,,,,,,,,,,,,,,,
Radio and TV Marti,,,,,,,,,,,,,,,,,
Radio Free Asia (RFA),RFA,,,,,,,,,,,,,,,,
Radio Free Europe/Radio Liberty (RFE/RL),RFE/RL,,,,,,,,,,,,,,,,
Railroad Retirement Board (RRB),RRB,,,,,,,,,,,,,,,,
"Reclamation, Bureau of",,,,,,,,,,,,,,,,,
"Refugee Resettlement, Office of",,,,,,,,,,,,,,,,,
Regulatory Information Service Center,,,,,,,,,,,,,,,,,
Rehabilitation Services Administration (Education Department),,,,,,,,,,,,,,,,,
Research and Innovative Technology Administration,,,,,,,,,,,,,,,,,
Risk Management Agency (Agriculture Department),,,,,,,,,,,,,,,,,
Rural Business and Cooperative Programs,,,,,,,,,,,,,,,,,
Rural Development,,,,,,,,,,,,,,,,,
Rural Housing Service,,,,,,,,,,,,,,,,,
Rural Utilities Service,,,,,,,,,,,,,,,,,
Saint Lawrence Seaway Development Corporation,,,,,,,,,,,,,,,,,
"Science and Technology Policy, Office of",,,,,,,,,,,,,,,,,
Science Office (Energy Department),,,,,,,,,,,,,,,,,
"Scientific and Technical Information, Office of",,,,,,,,,,,,,,,,,
Secret Service,,,,,,,,,,,,,,,,,
Securities and Exchange Commission (SEC),SEC,,,,,,,,,,,,,,,,
Selective Service System (SSS),SSS,,,,,,,,,,,,,,,,
Senate,,,,,,,,,,,,,,,,,
Small Business Administration (SBA),SBA,,,,,,,,,,,,,,,,
Smithsonian Institution,,,,,,,,,,,,,,,,,
Social Security Administration (SSA),SSA,,,,,,,,,,,,,,,,
Social Security Advisory Board,,,,,,,,,,,,,,,,,
Southeastern Power Administration,,,,,,,,,,,,,,,,,
Southern Command,,,,,,,,,,,,,,,,,
Southwestern Power Administration,,,,,,,,,,,,,,,,,
Special Forces Operations Command,,,,,,,,,,,,,,,,,
State Department,,,,,,,,,,,,,,,,,
State Justice Institute,,,,,,,,,,,,,,,,,
Stennis Center for Public Service,,,,,,,,,,,,,,,,,
Strategic Command,,,,,,,,,,,,,,,,,
Substance Abuse and Mental Health Services Administration,,,,,,,,,,,,,,,,,
Supreme Court of the United States,,,,,,,,,,,,,,,,,
"Surface Mining, Reclamation and Enforcement",,,,,,,,,,,,,,,,,
Surface Transportation Board,,,,,,,,,,,,,,,,,
Susquehanna River Basin Commission,,,,,,,,,,,,,,,,,
Tax Court,,,,,,,,,,,,,,,,,
Taxpayer Advocacy Panel,,,,,,,,,,,,,,,,,
Tennessee Valley Authority,,,,,,,,,,,,,,,,,
Trade and Development Agency,,,,,,,,,,,,,,,,,
Transportation Command,,,,,,,,,,,,,,,,,
Transportation Department,,,,,,,,,,,,,,,,,
Transportation Security Administration (TSA),TSA,,,,,,,,,,,,,,,,
"Transportation Statistics, Bureau of",,,,,,,,,,,,,,,,,
Treasury Department,,,,,,,,,,,,,,,,,
TRICARE Management,,,,,,,,,,,,,,,,,
Trustee Program,,,,,,,,,,,,,,,,,
Trustee Program (Justice Department),,,,,,,,,,,,,,,,,
U.S. AbilityOne Commission,,,,,,,,,,,,,,,,,
U.S. Access Board,,,,,,,,,,,,,,,,,
U.S. Agency for International Development (USAID),,,,,,,,,,,,,,,,,
U.S. Air Force,,,,,,,,,,,,,,,,,
U.S. Arctic Research Commission,,,,,,,,,,,,,,,,,
U.S. Army,,,,,,,,,,,,,,,,,
U.S. Army Corps of Engineers,,,,,,,,,,,,,,,,,
U.S. Botanic Garden,,,,,,,,,,,,,,,,,
U.S. Capitol Police,,,,,,,,,,,,,,,,,
U.S. Capitol Visitor Center,,,,,,,,,,,,,,,,,
U.S. Central Command (CENTCOM),,,,,,,,,,,,,,,,,
U.S. Circuit Courts of Appeal,,,,,,,,,,,,,,,,,
U.S. Citizenship and Immigration Services,,,,,,,,,,,,,,,,,
U.S. Coast Guard,,,,,,,,,,,,,,,,,
U.S. Commission of Fine Arts,,,,,,,,,,,,,,,,,
U.S. Commission on International Religious Freedom,,,,,,,,,,,,,,,,,
U.S. Commodity Futures Trading Commission (CFTC),,,,,,,,,,,,,,,,,
U.S. Court of Appeals for Veterans Claims,,,,,,,,,,,,,,,,,
U.S. Customs and Border Protection,,,,,,,,,,,,,,,,,
U.S. Department of Agriculture (USDA),,,,,,,,,,,,,,,,,
U.S. Department of Commerce (DOC),,,,,,,,,,,,,,,,,
U.S. Department of Health and Human Services (HHS),,,,,,,,,,,,,,,,,
U.S. Election Assistance Commission (EAC),,,,,,,,,,,,,,,,,
U.S. Fleet Forces Command,,,,,,,,,,,,,,,,,
U.S. Geological Survey (USGS),,,,,,,,,,,,,,,,,
U.S. House of Representatives,,,,,,,,,,,,,,,,,
U.S. Immigration and Customs Enforcement,,,,,,,,,,,,,,,,,
U.S. International Trade Commission,,,,,,,,,,,,,,,,,
"U.S. Military Academy, West Point",,,,,,,,,,,,,,,,,
U.S. Mission to the United Nations,,,,,,,,,,,,,,,,,
U.S. National Central Bureau - Interpol (Justice Department),,,,,,,,,,,,,,,,,
U.S. Patent and Trademark Office,,,,,,,,,,,,,,,,,
U.S. Postal Service (USPS),,,,,,,,,,,,,,,,,
U.S. Senate,,,,,,,,,,,,,,,,,
U.S. Sentencing Commission,,,,,,,,,,,,,,,,,
U.S. Trade and Development Agency,,,,,,,,,,,,,,,,,
U.S. Trade Representative,,,,,,,,,,,,,,,,,
U.S. Trustee Program,,,,,,,,,,,,,,,,,
Unified Combatant Commands (Defense Department),,,,,,,,,,,,,,,,,
Uniformed Services University of the Health Sciences,,,,,,,,,,,,,,,,,
United States Mint,,,,,,,,,,,,,,,,,
United States Postal Inspection Service,,,,,,,,,,,,,,,,,
US-CERT,,,,,,,,,,,,,,,,,
Veterans Affairs Department (VA),,,,,,,,,,,,,,,,,
Veterans Benefits Administration,,,,,,,,,,,,,,,,,
Veterans Day National Committee,,,,,,,,,,,,,,,,,
Veterans Employment and Training Service (VETS),,,,,,,,,,,,,,,,,
Veterans' Employment and Training Service,,,,,,,,,,,,,,,,,
Vietnam Education Foundation,,,,,,,,,,,,,,,,,
Voice of America,,,,,,,,,,,,,,,,,
Washington Headquarters Services,,,,,,,,,,,,,,,,,
Weather Service,,,,,,,,,,,,,,,,,
West Point (Army),,,,,,,,,,,,,,,,,
Western Area Power Administration,,,,,,,,,,,,,,,,,
White House,,,,,,,,,,,,,,,,,
White House Commission on Presidential Scholars,,,,,,,,,,,,,,,,,
White House Office of Administration,,,,,,,,,,,,,,,,,
Women's Bureau (Labor Department),,,,,,,,,,,,,,,,,
Woodrow Wilson International Center for Scholars,,,,,,,,,,,,,,,,,